id,post,office_name,country,state,city,address,email,fax,mail_instructions,phone,post_type
a378662a0b98ac34b93518669b6efca1cb197b5d,South Texas,South Texas U.S. Export Assistance Center,US,TX,null,"South Texas Export Assistance Center,6401 S. 36th St., Suite 4,McAllen, Texas 78503,http://www.export.gov/texas",Daniel.Rodriguez@trade.gov,956-661-0239,,956-661-0238,D
57c58c30923317e910cc0d5e6323e85968c765dc,Southern Network Dir,Southern Regional Director,US,GA,Atlanta,"U.S. Commercial Service,230 Peachtree Street, Suite 1725,Atlanta, GA 30303",Thomas.Strauss@trade.gov,404-730-4819,,404-730-2696,D
eba047edb8177e7fb3961587416b1707945ece07,Southwest Network Dir,Southwest Network Director,US,CO,null,"300 West Congress Street,Ste 7N1,Tucson, Arizona 85701",eric.nielsen@trade.gov,303-844-5651,,520-247-8798,D
14643c92a82c26da5e2b8d2554bb58ccadda66e6,Spokane,Spokane U.S. Export Assistance Center,US,WA,Spokane,"Spokane U.S. Export Assistance Center,Greater Spokane Incorporated,801 W. Riverside Ave.,Spokane, WA 99201,http://www.export.gov/washington/spokane",office.spokane@trade.gov,503-326-6351,,509-344-9398,D
90f6da0cc2ab612d699aa72dd20734012b528701,St. Louis,St. Louis U.S. Export Assistance Center,US,MO,null,"1100 Corporate Square Drive,Suite 242,St. Louis MO 63132",Office.StLouis@trade.gov,314-260-3792,,314-260-3780,D
a5465eed81f92784043ced18da031c70697ce817,Tacoma,Tacoma U.S. Export Assistance Center is closed,US,WA,Seattle,"Please contact the:,Seattle U.S. Export Assistance Center,2001 Sixth Ave., Suite 2610,Seattle, WA 98121,http://www.buyusa.gov/seattle/",Office.Tacoma@trade.gov,206-553-7253,,206-553-5615,D
73eff0aca2e6a2f60fbc5e937b18a9fb85247bfa,Tallahassee,Jacksonville U.S. Export Assistance Center (West),US,FL,Jacksonville,"Jacksonville U.S. Export Assistance Center,U.S. Commercial Service,3 Indpendent Drive,Jacksonville, FL 32202,http://www.export.gov/florida",Jorge.Arce@trade.gov,904-232-1271,,904-232-1270,D
5a1a037af681f91a0d92ce36237fb19f075a7c80,Tucson,Tucson U.S. Export Assistance Center,US,AZ,Tucson,"Tucson U.S. Export Assistance Center,300 West Congress Street,Suite 7N1,Tucson, AZ 85701,http://www.export.gov/arizona/",Office.Tucson@trade.gov,520-243-1910,,520-670-5540,D
5756d032b5a3589c32557f4383067bcfb1726bf8,Tulsa,Oklahoma U.S. Export Assistance Center,US,OK,Oklahoma City,"Oklahoma U.S. Export Assistance Center,301 N.W. 63rd Street, Suite 420,Oklahoma City, OK 74116,http://www.export.gov/oklahoma/",Office.OklahomaCity@trade.gov,,,405-608-5302,D
95d11f20633ae1a573e6e4ef8c327808a5b026a2,Ventura County,Ventura County U.S. Export Assistance Center,US,CA,Port Hueneme,"Ventura County U.S. Export Assistance Center,333 Ponoma St.,Port Hueneme, CA 93041,http://www.export.gov/california/ventura/index.asp",gerald.vaughn@trade.gov,805-488-7801,,805-488-4844,D
aae84a5ee5ccbf11e4334ff8750bebd097eb951f,West Texas,West Texas U.S. Export Assistance Center,US,TX,Midland,"West Texas U.S. Export Assistance Center,1400 N. FM 1788, Room 1303,Midland, TX 79707-1423,http://www.export.gov/texas/midland",harry.henson@trade.gov,432-552-3490,,432-552-2490,D
1457916494662e06b35a4768aa1c3b52b4d8f3d4,Westchester,U.S. Commercial Service - Westchester,US,NY,White Plains,"245 Main Street, Suite 390,White Plains, NY 10601,http://export.gov/newyork/westchester",Joan.Kanlian@trade.gov,914-682-6698,,914-682-6712,D
e3fe3a54ac32da3837869fcf2ba58e5310a781f7,Wheeling,Wheeling U.S. Export Assistance Center,US,WV,Wheeling,"Wheeling U.S. Export Assistance Center,Wheeling Jesuit University,NTTC Building, Room 134,316 Washington Ave,Wheeling, WV 26003,http://www.export.gov/westvirginia/",Diego.Gattesco@trade.gov,304-243-5494,,304-243-5493,D
88cace9f4ea30ba5a6ffc0fa633eec61738818b5,Wichita,Wichita U.S. Export Assistance Center,US,KS, Wichita,"Wichita U.S. Export Assistance Center,300 W Douglas Ave., Suite 850, Wichita, KS 67202,http://www.export.gov/kansas/",Andrew.Anderson@trade.gov,316-462-5506,,316-263-4067,D
ca711abf1558dd9387f4947bb008dd3ad8e8cd88,Ypsilanti,Ypsilanti U.S. Export Assistance Center,US,MI,null,"Ypsilanti US Export Assistance Center,c/o EMU College of Business,300 W. Michigan Ave., Suite 306G,Ypsilanti, Michigan 48197,http://www.export.gov/michigan",Richard.Corson@trade.gov,248-975-9606,,248-975-9600,D
ea278cf2321b19a0d7bbc34317ada408df0c078b,Bakersfield,Bakersfield U.S. Export Assistance Center,US,CA,Fresno,"U.S. Commercial Service, Fresno & Bakersfield,801 R. Street, Suite 201,Fresno, CA 93721,http://export.gov/california/kern/index.asp",glen.roberts@trade.gov,,,661-637-0136,D
9930fd412388ad2d541356ebef454642766da599,Montevideo,Montevideo,UY,null,Montevideo,"American Embassy,US Commercial Service,Lauro Muller 1776,Montevideo 11200,Uruguay",Office.Montevideo@trade.gov,598-2 418-8581,"Mail sent by courier delivery should be sent to American Embassy, US Commercial Service, Lauro Muller 1776, Montevideo 11200, Uruguay.  All mail sent by regular post or pouch should be sent to US Embassy Montevideo, Unit 4502, APO  AA  34035",598-21770 2322,F
0dba6aea47e20a8866f197407714b0d33fa437e7,Abu Dhabi,Abu Dhabi,AE,null,Abu Dhabi,"American Embassy,Embassies District,Plot 38, Sector W59-02,Street No 4,Abu Dhabi, UAE",Office.Abudhabi@trade.gov,971-2-414-2228,Work Week: Sunday - Thursday,971-2-414-2304,F
63bbba8625449bdf72a01c75d62a324df23380b9,Accra,Accra,GH,null,Accra,"# 24 Fourth Circular Rd.,Cantonments, Accra,P.O. Box 194,Accra, Ghana",office.accra@trade.gov,+233-30-274-1401,,+233-30-274-1870,F
00c40e194655b6065a704e7581551e5348fad3f9,Addis Ababa,"Ethiopia, Addis Ababa US Embassy",ET,null,Addis Ababa,"14 Entoto Rd,Addis Ababa",Office.Ethiopia@Trade.gov,(251-11) 124-2406,,(251-11) 130-6683,F
c8137f708db3706016fbc9b661ec137b33444ec1,Ahmedabad,Ahmedabad,IN,null,Ahmedabad,"5th Floor, Radisson Blu Hotel, Panchvati Cross Road,Off. C G Road, Ambawadi - 380 006",office.ahmedabad@trade.gov,+91 79 2656 0763,,+91 79 2656 5210,F
d7d71d6c717ce8b36cb998c86d71b67c97ef0a06,Algiers,Algiers,DZ,null,Algiers,"5, Chemin Cheikh Bachir Ibrahimi, El Biar, Algiers, Algeria.",Nathan.seifert@trade.gov,+213-23-47-17-79,,+213-770-082-049,F
2c88761afecc37e94ee9e3e24ff8277bd2a6a439,Almaty,Almaty,KZ,null,Almaty,"U.S. Consulate General - Almaty,U.S. Commercial Service,41 Kazibek bi St,050010, Almaty, Kazakhstan",office.almaty@trade.gov,7 (727) 250-0777,Send items to US mailing address if at all possible. We incur high brokerage fees for courier shipments to our Almaty address.,"7 (727) 727-250-7612, ext 6490",F
61ea024cb7c961b8280e6af02dcedddf3a263c03,Amman,Amman,JO,null,Amman,"American Embassy,Commercial Section,Umaween Street, Abdoun Area,P.O. Box 354,Amman 11118 Jordan",office.amman@trade.gov,011-962-6-592-0146,Work Week: Sunday - Thursday,011-962-6-590-6632,F
3d833bffbd049d272843f4d631c657d314799082,Ankara,Ankara,TR,null,Ankara,"ASO Building,193 Ataturk Bulvari,06600 Kavaklidere,Ankara Turkey",Office.Ankara@trade.gov,(90) 312 428-8760,"Official Mail has to be sent using the Diplomatic Pouch address.  Do not write Ankara or Turkey when using DPO address, it may cause mail to be misdirected.",(90) 312 455-5555,F
510c765b98848f508f16b6f6e4a6aeda05328b2e,Athens,Athens,GR,null,Athens,"U.S. Embassy,U.S. Commercial Service,91 Vasilissis Sophias Avenue,GR-101 60 Athens",Office.Athens@trade.gov,+30 210 721 8660,For  courier mail use street address;  For mailing other than from the U.S. use street address but do not/do not send packages to the att. of FSNs.,+30 210 720 2303 / 720 2302,F
60455b7df8ac7b7f900eafa2180fbbf9fbaea5e0,Auckland,Auckland,NZ,null,Auckland,"Citibank Building,23 Customs Street East,Level 3,Auckland",office.auckland@trade.gov,011-649-302-3156,,011-649-309-8079,F
c6dfae3c0f6116f2a37592d6c285a1aba69e3656,Bangalore,Bengaluru,IN,null,Bangalore,"J.W. Marriott Hotel, 9th Floor,,24/1, Vittal Mallya Road,,Ashok Nagar, Bengaluru 560001, India",office.bengaluru@trade.gov,+91 80 2227 6405,,+91 80 2227 6401,F
5c521de0d16798dca8a7b97de098beac6118940e,Bangkok,Bangkok,TH,null,Bangkok,"American Embassy,US Commercial Service,GPF Witthayu, Tower A, Suite 302,93/1 Wireless Road,,Pathumwan, Bangkok 10330",Office.Bangkok@trade.gov,66-2-255-2915,,66-2-205-5090,F
c0cf42ccbc69329c52d7cbc2b061b126db8c7224,Beijing,Beijing,CN,null,Beijing,"U.S. Commercial Service - Beijing,No. 55 An Jia Lou Road,,Chaoyang District,Beijing 100600, China",Office.Beijing@trade.gov,(86-10) 8531-3701,,(86-10) 8531-3000,F
8b56b6f1cada9db06feae4f759d8cb2299a0fd4c,Beirut,Beirut,LB,null,Beirut,"Commercial Section,American Embassy,PO Box 70-480,Awkar, Lebanon",Naaman.Tayyar@trade.gov,961-4-541-788,Work Week: Monday - Friday,961-4-544-860,F
6c4effe387552ea604e218ef8f7c796a0fc80ebe,Belgrade,"Belgrade, Serbia",RS,null,Belgrade,"U.S. Embassy Belgrade,Bul. Kneza Aleksandra Karadjordjevica 92,11040 Belgrade",suzanne.platt@trade.gov,,,+381 11 706 4072,F
8129bf83202b7eda6fd05bf958e0dd311371b428,Belo Horizonte,Belo Horizonte,BR,null,Belo Horizonte,"Av. Contorno, 4520 - 2nd floor,Funcionarios,30110-028 Belo Horizonte (MG),Brazil",Office.BeloHorizonte@trade.gov,+55 31 3338-4007,,+55 31 3338-4000,F
d8b3645c9bd48b4e6a2572388ad47380df2674f9,Berlin,Berlin,DE,null,Berlin,"American Embassy,U.S. Commercial Service,Clayallee 170,14191 Berlin",Office.Berlin@trade.gov,+49 30 8305 1949,Use APO address whenever possible,+49 30 8305 1940,F
3fe7320349ad339315fc056b5a35d3855cd5eeb4,Bern,"Switzerland, Bern US Embassy",CH,null,Bern,"19 Sulgeneckstrasse,CH-3007 Bern, Switzerland",Sandor.Galambos@trade.gov,+41 31 357 7336,,+41 31 357 7237,F
dabb07d90b988642e50ef7c740284971daa7f3cd,Bogota,Bogota - GBI Post,CO,null,Bogota,"Embajada de los Estados Unidos de America,Oficina Comercial,Carrera 45 No 24B-27,Bogota, D.C. COLOMBIA",Office.Bogota@trade.gov,011 571 275 4575 / 275 4575,Use US Priority mail.  Do not use a courier,011 571 275 2519,F
f50bb6d1be215fcd057e4e6c0308351950961473,Brasilia,Brasilia,BR,null,Brasilia,"SES - Av. das Nações, Quadra 801, Lote 03,Brasilia - DF,70403-900",Office.brasilia@trade.gov,55-61-3312-7656,,55-61-3312-7418,F
0886e08c36123c5f54e377c08ab5de0445b4869e,Bratislava,Slovak,SK,null,Bratislava,"Embassy of the United States of America,U.S. Commercial Service,Hviezdoslavovo nam.5,811 02 Bratislava",Office.Bratislava@trade.gov,+421 2 5922 3345,"When sending mail to our local address or by courier service package (FedEx, DHL, etc.), please use the following address:  Americke Velvyslanectvo, U.S. Commercial Service, Hviezdoslavovo namestie 5, 811 02 Bratislava, Slovak Republic",+421 2 5922 3222,F
c5e50f7fbbbeecbaf58adde4de9530286d269441,Brussels,U.S. Commercial Service Brussels,BE,null,Brussels,"American Embassy,US Commercial Service,Regentlaan 27 Boulevard du Regent,1000 Brussels,Belgium",Office.Brussels@trade.gov,+32 2 512 3644,APO mail should be addressed to SCO,+32 2 811 4496,F
9d2e31a43a8c0c7f165017a4465eb1becee5965a,Bucharest,Bucharest,RO,null,Bucharest,"Commercial Section,U.S. Embassy,4-6, Dr. Liviu Librescu Blvd.,,District 1, Bucharest 015118,,Romania",office.bucharest@trade.gov,(40-21) 316-0690,Courier delivery using the above Street Address; by pouch using the above Mailing address.,(40-21) 200-3372,F
c4d0ad83cb7d6f44892f073b934092b45e898f82,Budapest,Hungary,HU,null,Budapest,"American Embassy,US Commercial Service,Szabadsag ter 12.,H-1054 Budapest",Office.Budapest@trade.gov,011-36-1-475-4205,"Please note that if the Washington DC address is used, expect 3-4 weeks for delivery.  For courier service, please use the Budapest address.",011-36-1-475-4090,F
fe930c7fb78cd79a9441b3fdbb72277ed09c92e8,Buenos Aires,Buenos Aires,AR,null,Buenos Aires,"Av. Colombia 4300,C1425GMN Buenos Aires",office.buenosaires@trade.gov,(54-11) 5777-4203,Please use the mailing address from U.S.,(54-11) 5777-4753,F
a57b661d8533bee084d4d656c61940c128e44617,Cairo,Cairo,EG,null,Cairo,"American Embassy,US Commercial Service,8 Kamal El Din Salah St.,Garden City, Cairo,EGYPT",Office.Cairo@trade.gov,011-20-2-795-8368,By APO,011-20-2-797-2340,F
1eba81b70bce2d8cc37d84c1971e22ab45924841,Calgary,Calgary - GBI Post,CA,null,Calgary,"10th floor,615 Macleod Trail SE,Calgary AB   T2G 4T8",Office.Calgary@trade.gov,403-266-4743,,403-265-2116,F
c04b4073aa8d1714b4c46306bc3e4cf592d99a31,Cape Town,Cape Town,ZA,null,Cape Town,"U.S. Consulate General Cape Town,2 Reddam Avenue, West Lake,Cape Town, South Africa 7945",office.capetown@trade.gov,(27-21) 702-7402,,(27-21) 702-7300,F
6409c9e1466bb5c05a03e6fc0117291aa626f90f,Casablanca,Casablanca,MA,null,Casablanca,"8, blvd. Moulay Youssef,Casablanca 20250",Office.Casablanca@trade.gov,212-522-22-02-59,,212-522-26-45-50,F
7d00979731f31e47031a7fc022468e3a36a276a6,Chengdu,Chengdu,CN,null,Chengdu,"No. 4,  Lingshiguan Road,Section 4, Renmin Nan Lu,Chengdu, China 610041",Office.Chengdu@trade.gov,+86 28 85589221,,+86 28 85583992,F
beb3ec2a7cdbbc3400bc405f7f5a34e327d385af,Chennai,Chennai,IN,null,Chennai,"220 Anna Salai,Chennai 600006",office.chennai@trade.gov,+91 44 2857 4212,,+91 44 2857 4477,F
391c6951ba9759eaeb3a9982bf448b8a05f0fc86,Copenhagen,Copenhagen,DK,null,Copenhagen,"Commercial Service Copenhagen,Dag Hammarskjölds Alle 24,DK-2100 Copenhagen O",office.copenhagen@trade.gov,n/a,,011-45-33417315,F
6dcd743aa3baa5e57da665603cb0cfdc146a3b02,Dar es Salaam,"Tanzania, Dar es Salaam US Embassy",TZ,null,Dar es Salaam,"U.S. Embassy Dar es Salaam,P. O. Box 9123,Plot 686 Old Bagamoyo Road,Msasani, Kinondoni District",Patricia.Wagner@trade.gov,255 (22) 266-8238,Please contact post about DPO and Pouch addresses,(255) 22 2294000,F
77c9fb25fc2cce5b1efd8d8c9d2fe33c8e451752,Dhahran,Dhahran,SA,null,Dhahran,"Prince Faisal bin Fahad St., between Aramco HQ and the old Dhahran Airport,Dhahran,P.O. Box 38955, Dhahran (Doha) 31942",Office.Dhahran@trade.gov,+966-(0)13-330-2190,,+966-(0)13-330-3200,F
52885fe4926ff81526b7f375d375cf9c561cfaea,Doha,Doha,QA,null,Doha,"United States Embassy - Commercial Section,22nd February Street,Al-Luqta,Doha,State of Qatar",ilona.shtrom@trade.gov,974-4488-4163,,974-4496-6000,F
39d133861d4865d795c8aeb0296684499c3a5a94,Dubai,Dubai,AE,null,Dubai,"American Consulate General,U.S. Commercial Service,Umm Hurair 1, Bur Dubai,Dubai, U.A.E.",Office.Dubai@trade.gov,+971-4-354-7090,Please allow 4-6 weeks for pouch delivery.,+971-4-309-4000,F
3aa31f6fa4cf2010b8cb0420d3bd8085af53e3a6,Dublin,Dublin,IE,null,Dublin,"American Embassy,US Commercial Service,42 Elgin Road, Ballsbridge,,Dublin 4",office.dublin@trade.gov,353-1-667-4754,"For courier delivery, use street address.  For sending regular mail, use mailing address.",353-1-237-5850,F
69e9590e5b14b1adaa0ab1ecb9987778ab6fe605,Dusseldorf,Dusseldorf,DE,null,Dusseldorf,"American Consulate General,US Commercial Service,Willi-Becker-Allee 10,40227 Dusseldorf",Office.Dusseldorf@trade.gov,+49 211 737 767 67,,+49 211 737 767 0,F
feb3d562f2751c4a98bb068c347c2e24baa4d717,European Union,U.S. Mission to the European Union,European Union,null,null,"U.S. Mission to the European Union,U.S. Commercial Service,Zinnerstraat 13 Rue Zinner,BE-1000 Brussels,*****,Mailing Address:,U.S. Mission to the European Union,U.S. Commercial Service,Regentlaan 27 Boulevard du Regent,BE-1000 Brussels",Office.BrusselsEC@trade.gov,+32-2-811-5151,,+32-2-811-4817,F
d956d71f74c151aab435451558f8262bca0cc82b,Frankfurt,Frankfurt,DE,null,Frankfurt,"American Consulate General,U.S. Commercial Service,Giessener Str. 30,60435 Frankfurt,Germany,http://www.export.gov/germany/",Office.Frankfurt@trade.gov,+49 69 7535 3171,,+49 69 7535 3120,F
6c256366d65939f750effbd974892df2e26e3ed9,Guadalajara,Guadalajara,MX,null,Guadalajara,"U.S. Commercial Service,World Trade Center, Torre Pacifico piso 4,Mariano Otero No. 1249,Col. Rinconada del Bosque,44530 Guadalajara, JAL,Mexico",Office.Guadalajara@trade.gov,52-33-3615-7665,"Send promotional materials for Gold Keys, IPSs, shows, missions, etc. via express mail courier service to the street address.  Do not use the Laredo address.  Specify ""no commercial value"" on the mailing label.",52-33-3615-1140,F
f2e20cfe3c00f2f7261ff38ad66446b0d3f09e07,Guangzhou,Guangzhou,CN,null,Guangzhou,"American Consulate General Guangzhou,US Commercial Service,NO.43 Hua Jiu Road, Zhujian New Town,Guangzhou, 510623,China",office.guangzhou@trade.gov,0086-20-3814-5310,Please mail via courier to street address if possible.  Packages send to Washington mailing address takes at least two weeks to arrive.,0086-20-3814-5000,F
948c9d3f7761738e1850c8597c8a0e8ca1838246,Guatemala City,Guatemala City,GT,null,Guatemala City,"Avenida de la Reforma 7-01, Zona 10,01010 Guatemala",Office.Guatemala@trade.gov,011-502-2331-7373,Please consult with us before shipping any material/correspondence to our office.,011-502-2326-4000,F
36b07b49affe70b78be96c76d27d149110109bde,Hanoi,Hanoi,VN,null,Hanoi,"U.S. Embassy,U.S. Commercial Service,Rose Garden Tower,170 Ngoc Khanh Street,Hanoi,Vietnam",Office.Hanoi@trade.gov,84-24-3850-5064,"For courier delivery, use the above street address; For official pouch, use the above mailing address",84-24-3850-5199,F
39e454492df4a3f0b959264237158fec3d8f138e,Helsinki,Helsinki,FI,null,Helsinki,"American Embassy,US Commercial Service,Itainen Puistotie 14 B,FIN-00140 Helsinki,Finland",Office.Helsinki@trade.gov,,,(358) 9 616 250,F
552d5d3b56125f6aec1df8d21ce6a2e2f546e5cb,Ho Chi Minh City,Ho Chi Minh City,VN,null,Ho Chi Minh City,"U.S. Consulate General,U.S. Commercial Service,Diamond Plaza, 8F,34 Le Duan Street, District 1,Ho Chi Minh City,Vietnam",Office.HoChiMinhCity@trade.gov,+84-28-3520-4679 / 81,"For courier delivery, use the above street address; For pouch, use the above mailing address",+84-28-3520-4680,F
2a273be9fa803a4cde8e13a28900ae967bf0cd77,Hong Kong,Hong Kong,HK,null,Hong Kong,"American Consulate General,U.S. Commercial Service,26 Garden Road, Central,Hong Kong",office.hongkong@trade.gov,011-852-2845-9800,"For courier delivery, use the street address.  For sending regular mail or pouch, use the mailing address from U.S.",011-852-2521-1467,F
e6520a4f86c8bf710091421e9fa868edce3be27d,Hyderabad,Hyderabad,IN,null,Hyderabad,"# 152, Hotel Taj Deccan, Banjara Hills,Hyderabad - 500 034. INDIA",office.hyderabad@trade.gov,+91 40 2330 0130,,+91 40 2330 5000; 2330 4025,F
99cde051c42f17f2c23d6d24ff04928a9873313c,Islamabad,Islamabad,PK,null,Islamabad,"American Embassy,Diplomatic Enclave,Ramna-5,Islamabad, PAKISTAN",Steve.Knode@trade.gov,92-51-282-3981,Use DPO address for regular mail.  FEDEX to the street address.      Work Week: Monday - Friday,92-51-201-4000,F
1cf055b178933a8772f700482a87e1932b3fbe24,Istanbul,Istanbul,TR,null,Istanbul,"U.S. Commercial Service Istanbul,Istinye Mahallesi,Kaplicalar Mevkii No. 2,Istinye Istanbul,Turkey TR-34460",Office.Istanbul@trade.gov,(90-212) 335-9103,Please note that APO regulations require mail to be addressed to the American officer at post and not directly to the FSN staff.,(90-212) 335-9040,F
090bea0e7b2545e4b668cd676b91e767ed23b716,Izmir,Izmir,TR,null,Izmir,"U.S. Commercial Service,Ataturk Caddesi, 126,Kat:5,35210 Pasaport,Izmir",Office.Izmir@trade.gov,90-232-489-0267,,90-232-441-2446,F
12fdd588d3672d13105eadf3fcabd1ec7744f7f2,Jakarta,Jakarta,ID,null,Jakarta,"American Embassy,US Commercial Service,World Trade Center 6, 3rd Floor,Jl. Jendral Sudirman Kav. 29-31,Jakarta 12920",office.jakarta@trade.gov,(62-21) 526-2855,,(62-21) 526-2850,F
d21c05423bf9c33a011f0c3bd3382254a606ceb2,Jeddah,Jeddah,SA,null,Jeddah,"U.S. Commercial Service,American Consulate General,Palestine Rd., Ruwais,P. O. Box 149,Jeddah 21411, Saudi Arabia",Office.Jeddah@trade.gov,+966-(0)12-664-4148,,+966-(0)12-667-0080,F
e59f9c4388b571e55e19d85b03deb1d016c64185,Jerusalem,"Office Jerusalem, covering the West Bank market",IL,null,Jerusalem,"Ground Floor,19 Keren Hayesod Street,91008  JERUSALEM",office.jerusalem@trade.gov,(972-2) 623-5132,,(972-2) 625-5201,F
0a09a1d44ecf5343bb52d5f04b7866340e0dc028,Johannesburg,Johannesburg,ZA,null,Johannesburg,"1 Sandton Drive,Sandhurst, 2196,Johannesburg",office.johannesburg@trade.gov,27 11 884 0253,"Please note that shipments to the Washington, DC address will take approximately three weeks to arrive in South Africa.",27 11 290 3120,F
a7d179826567260bb0549302488c47a104b8177b,Kaohsiung,American Institute in Taiwan - Kaohsiung,TW,null,Kaohsiung,"5 FL. No. 88, Chenggong 2nd Road, Kaohsiung 80661, Taiwan",Office.Kaohsiung@trade.gov,88673380551,,88673355006 Ext. 6120,F
b5adf7ddc84afb9fcd693ac1e2617fa32f305779,Karachi,Karachi,PK,null,Karachi,"3, 4, 5, New TPX Area, Mai Kolachi Road,,Karachi, Pakistan.",Malik.Attiq@trade.gov,92-21-3561-2413,Mail care of SCO in Islamabad,92-21-3527-5017,F
1d47e31837d376ef1c10083a244f8a51a3d75c8f,Kiev,Kiev,UA,null,Kiev,"4,Igor Sikorsky Street (formerly Tankova St.),Kyiv, Ukraine 04112",office.kiev@trade.gov,380 (44) 521-5727,For expedited delivery - use courier addressed to our international address.,380 (44) 521-5244,F
87b72b5315083890d539ae921191ba9276e09d8b,Kolkata,Kolkata (Calcutta),IN,null,Kolkata,"The American Center,38-A, Jawaharlal Nehru Road,,Kolkata (Calcutta) 700 071",office.calcutta@trade.gov,+91 33 3984 6353,Please allow 3 weeks,+91 33 3984 6402,F
b83a869e0331398bba08736bcbd30553049319d5,Rangoon,Rangoon,MM,null,Rangoon,"American Embassy Rangoon,US Commercial Service,110 University Ave,Kamayut Township 11041,Yangon, Myanmar",DesaiMS@state.gov,,,95-1 536-509 x4435,F
5f246096b6f844d5b32e99fe6eeb774a5a95ca9d,NordicRegion-Denmark,Nordic Region - Denmark,SE,null,NordicRegion-Denmark,null,office.Copenhagen@trade.gov,N/A,,46-8-783-5346,F
4a715462740d29f529a8f8577a8c75a76bcce953,Kuala Lumpur,Kuala Lumpur,MY,null,Kuala Lumpur,"US Embassy Kuala Lumpur,US Commercial Service,376 Jalan Tun Razak,50400 Kuala Lumpur",office.kualalumpur@trade.gov,60-3-2142-1866,Work Week: Monday - Friday,60-3-2168-5000,F
bce341208dc28be4fef38f933afe3715aa5aef3d,Kuwait City,Kuwait City,KW,null,Kuwait City,"U.S. Commercial Service,Masjed Al Aqsa St.,Block 14, Bayan, Kuwait,P.O. Box 77, Safat, 13001,Kuwait City, Kuwait",office.kuwaitcity@trade.gov,965 2259-1271,Work Week: Sunday-Thursday    EST + 8 (winter) or est+ 7 (April-Oct),965 2259-1011,F
dca7a63ce85afd8c361fbb236b494e640d96cc5e,Lagos,Lagos,NG,null,Lagos,"American Consulate General,US Commercial Service,2 Walter Carrington Crescent, Victoria Island,Lagos, Nigeria",Office.Lagos@trade.gov,N/A,"U.S. Mail, Courier services (e.g. Fedex, UPS) accepted.   Package size/weight restrictions.",011-234-1 460-3581,F
5fc56576703015de5ac929c1de8ae95cf9891d4e,Lahore,Lahore,PK,null,Lahore,"American Consulate,50 Shahrah-E-Bin Badees,Lahore",Aftab.Qamar@trade.gov,92-42-603-4229,Mail APO care of SCO in Islamabad.,92-42-603-4000,F
6bfff5613868238c88c0d108f5ca82f5832e6d0f,Lima,Lima,PE,null,Lima,"U.S. Embassy,Commercial Section,Avenida La Encalada Cuadra 17 s/n,Monterrico, Surco,Lima 33 - Peru",Office.Lima@trade.gov,011-511-434-3041,"We strongly prefer that you use US mail addressed to our Pouch address.  For courier service, please use the street address.  Note:  for courier service, please specify that you are sending documents with no commercial value.  Thank you!",011-511-434-3040 / 618-2442,F
dbbf2ab2038619ca475b76cf459a50337a529f0c,Lisbon,Lisbon,PT,null,Lisbon,"American Embassy Lisbon,U.S. Commercial Service,Avenida das Forcas Armadas,1649-044 Lisbon",Office.Lisbon@trade.gov,011-351-21-726-8914,"When using courier, please use DHL or UPS to the street address",011-351-21-770 2528 / 727 3300,F
1f986ac0c8e04b91217221489190ad28bb1bd629,London,London,GB,null,London,"U.S. Embassy London,U.S. Commercial Service,33 Nine Elms Lane,London SW11 7US,United Kingdom",Office.London@trade.gov,,,+44 20 7891 3419,F
07cbc2717de899667602198831394555c3ed7ac4,NordicRegion-Finland,Nordic Region - Finland,SE,null,NordicRegion-Finland,null,office.Helsinki@trade.gov,N/A,,46-8-783-5346,F
1530ba91506a5723d0578693a064c38bb2706ff2,Luanda,"Angola, Luanda US Embassy",AO,null,Luanda,"Rua Houari Boumedienne #32,Luanda",everett.wakai@trade.gov,N/A,,244-222-641-000,F
504a2dae9c91cf7b5d5c21450eca114e36819b84,Madrid,Madrid,ES,null,Madrid,"U.S. Commercial Service,Embassy of the United States of America,Serrano, 75,28006 Madrid,SPAIN",office.madrid@trade.gov,+34-91-563-0859,,+34-91-564-8976,F
b95f41aa423e0bfd496f94bcfcff84b002f59835,Manila,Manila,PH,null,Manila,"U.S. Commercial Service,Embassy of the United States of America,1201 Roxas Boulevard,Manila 0930, Philippines",businessphilippines@trade.gov,011-632-521-0416,Speak with Post regarding customs forms.,011-632-301-4249,F
9f0b9004b7e546c450652e08d6b8d101de636dcc,Maputo,"Mozambique, Maputo US Embassy",MZ,null,Maputo,"JAT Complex 3, 3rd Floor,Maputo",Tamarind.Murrietta@trade.gov,,MAIL VIA DULLES - DO NOT USE INTERNATIONAL MAIL.,258 21 35 54 18,F
9ad649001879114b21283b587d98edb2db68d087,NordicRegion-Norway,Nordic Region - Norway,SE,null,NordicRegion-Norway,null,office.Oslo@trade.gov,N/A,,46-8-783-5346,F
dc2032b1353095dfc8dd152f5f9416a48abeff9b,Mexico City,Mexico City,MX,null,Mexico City,"American Embassy,U.S. Commercial Service - Mexico City,Liverpool 31, Col. Juarez,06600 Mexico, D.F.",Office.MexicoCity@trade.gov,52-55-5080-2199,"All promotional materials for Gold Keys, missions, IPSs, shows, etc. should be sent to the street address using a courier service. Using regular mail or the P.O Box address will delay delivery.  On mailing label, claim ""no commercial value.""",52-55-5080-2000,F
9b8a1402bc426cb4d34fa4ad6970a600bd992517,Milan,Milan,IT,null,Milan,"American Consulate General,U.S. Commercial Service,Via Principe Amedeo 2,20121 Milan,Italy",Office.Milan@trade.gov,011-39-02-659-6561,,011-39-02-626-8851,F
77a8d56be3ee9f7551a0410fd90ee8a801da8f86,Monterrey,Monterrey,MX,null,Monterrey,"U.S. Consulate General Monterrey,U.S. Commercial Service,Prolongacion Avenida Alfonso Reyes #150,Col. Valle Poniente,66196 Santa Catarina, Nuevo Leon, Mexico",eric.olson@trade.gov,,,(52-81) 8047-3450,F
167e2290aca67c1a93f379d06d9f6bc1737ae119,Montreal,Montreal,CA,null,Montreal,"1155 St-Alexander St.,Montreal, Quebec H3B 3Z1",Office.Montreal@trade.gov,514-398-0711,,"514-398-9695, ext. 2220",F
23310a2b0d7a8e2f56432b64913f2f170036d383,Moscow,Moscow,RU,null,Moscow,"American Embassy,US Commercial Service,Bolshoy Deviatinsky Pereulok, 8,Moscow, 121099",office.Moscow@trade.gov,7-495-728-5585,All couriered items should be sent via DHL - DO NOT USE FedEx,7-495-728-5580,F
226010e86063a1c9b9799fb166de5605e876318d,Mumbai,Mumbai,IN,null,Mumbai,"US Commercial Service,American Consulate General,C-49, G-Block, Bandra Kurla Complex (BKC),Bandra (E), Mumbai - 400 051.",office.mumbai@trade.gov,+91 22 2672 4400,Please allow three weeks via pouch,+91 22 2672 4000,F
de8ce6f858763cbdbefc697cd1430b74f2c01c5f,Munich,Munich,DE,null,Munich,"American Consulate General,U.S. Commercial Service,Koeniginstr. 5,80539 Munich",office.munich@trade.gov,+49 89 28 52 61,,+49 89 2888 754,F
dc29a4ad430a9bba14d50381086a507d883f2ff1,Nairobi,Nairobi,KE,null,Nairobi,"U.N. Avenue Gigiri,P.O. Box 606 Village Market,00621 Nairobi",Office.Nairobi@trade.gov,254-20-363-6722,,254-20-3636000 ext. 6424,F
a0def0bba588f85b5f87a975d107cbd847e626f1,New Delhi,New Delhi,IN,null,New Delhi,"The American Center,24 Kasturba Gandhi Marg,New Delhi 110 001",office.newdelhi@trade.gov,+91 11 2331 5172,Please allow 3 weeks for pouch,+91 11 2347 2000,F
