URL,Site Name,Site Title,CITY,Office,Group,Phase,id,post,office_name,country,state,address,email,fax,mail_instructions,phone,post_type,X13
/sites/GM/Asia/India/Hyderbad,Hyderabad,Hyderabad,Hyderabad,GM-CS Asia-Field-India-Hyderabad,Asia-Field-IndiaHyderabad_AllUsers,GM-International,e6520a4f86c8bf710091421e9fa868edce3be27d,Hyderabad,Hyderabad,IN,null,"# 152, Hotel Taj Deccan, Banjara Hills,Hyderabad - 500 034. INDIA",office.hyderabad@trade.gov,+91 40 2330 0130,,+91 40 2330 5000,2330 4025,
/sites/GM/MEA/Africa/SouthAfrica/Johannesburg,Johannesburg,Johannesburg,Johannesburg,GM-CS MEA-Field-Africa-SouthAfrica-Johannesburg,GM-CS_MEA-Field-Africa-SouthAfrica-Johannesburg_AllUsers,GM-International,0a09a1d44ecf5343bb52d5f04b7866340e0dc028,Johannesburg,Johannesburg,ZA,null,"1 Sandton Drive,Sandhurst, 2196,Johannesburg",office.johannesburg@trade.gov,27 11 884 0253,"Please note that shipments to the Washington, DC address will take approximately three weeks to arrive in South Africa.",27 11 290 3120,F,
/sites/GM/USA/MidWest/KansasCity,Kansas-City,Kansas City,Kansas City,GM-CS USA-Field-MidWest-KansasCity,USA-Field-MidWest-KansasCity_AllUsers,GM-USA,850ff6fb2d691db86da8735936ceb76d0768f2a9,Midwest Network Dir,"Regional Director, Midwest Network",US,IL,"1000 Walnut, Suite 500,Kansas City, MO 64106",regina.heise@trade.gov,816-471-7839,,816-421-1932,D,
/sites/GM/WH/Canada/Calgary,Calgary,Calgary,Calgary,GM-CS WH-Field-Canada-Calgary,WH-Field-CanadaCalgary_AllUsers,GM-International,1eba81b70bce2d8cc37d84c1971e22ab45924841,Calgary,Calgary - GBI Post,CA,null,"10th floor,615 Macleod Trail SE,Calgary AB   T2G 4T8",Office.Calgary@trade.gov,403-266-4743,,403-265-2116,F,
/sites/GM/WH/Canada/Montreal,Montreal,Montreal,Montreal,GM-CS WH-Field-Canada-Montreal,WH-Field-CanadaMontreal_AllUsers,GM-International,167e2290aca67c1a93f379d06d9f6bc1737ae119,Montreal,Montreal,CA,null,"1155 St-Alexander St.,Montreal, Quebec H3B 3Z1",Office.Montreal@trade.gov,514-398-0711,,"514-398-9695, ext. 2220",F,
/sites/GM/USA/Northeast/Buffalo,Buffalo,Buffalo,Buffalo,GM-CS USA-Field-NorthEast-Buffalo,USA-Field-NorthEast-Buffalo_AllUsers,GM-USA,bf01725e88d1ee9e357a329447ab7ee7030be2a4,Buffalo,U.S. Commercial Service - Buffalo,US,NY,"130 S. Elmwood Ave., Suite 530,Buffalo, NY 14202,http://www.export.gov/newyork/bflorochsyr",rosanna.masucci@trade.gov,716-551-5290,,716-551-4191,D,
/sites/GM/MEA/Africa/AddisAbaba,Ethiopia,Ethiopia,Addis Ababa,GM-CS MEA-Field-Africa-AddisAbaba,GM-CS_MEA-Field-Africa-AddisAbaba_AllUsers,GM-International,00c40e194655b6065a704e7581551e5348fad3f9,Addis Ababa,"Ethiopia, Addis Ababa US Embassy",ET,null,"14 Entoto Rd,Addis Ababa",Office.Ethiopia@Trade.gov,(251-11) 124-2406,,(251-11) 130-6683,F,
/sites/GM/USA/Northeast/NewYork,New-York,New York,New York,GM-CS USA-Field-NorthEast-NewYork,USA-Field-NorthEast-NewYork_AllUsers,GM-USA,f907f8d0fb1cbfb7e54e9d8071ca0367ca3ba050,Harlem,U.S. Commercial Service - Harlem,US,NY,"163 W. 125th St., Suite 901,New York, NY 10027,http://www.export.gov/newyork/harlem/",Office.Harlem@trade.gov,212-860-6203,,212-860-6200,D,
/sites/GM/Asia/India/Chennai,Chennai,Chennai,Chennai,GM-CS Asia-Field-India-Chennai,Asia-Field-IndiaChennai_AllUsers,GM-International,beb3ec2a7cdbbc3400bc405f7f5a34e327d385af,Chennai,Chennai,IN,null,"220 Anna Salai,Chennai 600006",office.chennai@trade.gov,+91 44 2857 4212,,+91 44 2857 4477,F,
/sites/GM/USA/Southwest/Austin,Austin,Austin,Austin,GM-CS USA-Field-Southwest-Austin,USA-Field-Southwest-Austin_AllUsers,GM-USA,1fc6e94249a1a305e620574576cd7e38a0324dc9,Austin,U.S. Commercial Service - Austin,US,TX,"221 E. 11th St., 4th Floor,Austin, TX 78701,www.export.gov/texas/austin/",Karen.Parker@trade.gov,512-916-5940,,512-916-5939,D,
/sites/GM/USA/PacificNorth/Anchorage,Anchorage,Anchorage,Anchorage,GM-CS USA-Field-PacificNorth-Anchorage,USA-Field-PacificNorth-Anchorage_AllUsers,GM-USA,97c2d541d409913bfba6c5ece6fc1d4d56bd01f5,Anchorage,U.S. Commercial Service - Alaska,US,AK,"222 West 7th Avenue, Suite 524,Anchorage, AK 99513,http://www.export.gov/alaska/",Debra.Franklin@trade.gov,,,907-271-6237,D,
/sites/GM/USA/PacificSouth/NewportBeach,Irvine,Irvine,Irvine,GM-CS USA-Field-PacificSouth-NewportBeach,USA-Field-PacificSouth-NewportBeach_AllUsers,GM-USA,d15f7ac9d58c501f99d51c45645e9e0a9912b1b0,Irvine,Irvine (Newport Beach) U.S. Export Assistance Center,US,CA,"2302 Martin Court, Suite 315,Irvine, CA 92612,http://export.gov/california/irvine",OfficeIrvine@trade.gov,949-660-1338,,949-660-1688,D,
/sites/GM/USA/MidWest/Chicago,Chicago,Chicago,Chicago,GM-CS USA-Field-MidWest-Chicago,USA-Field-MidWest-Chicago_AllUsers,GM-USA,d1f26ee57885cb0e58c0e9f982c31bd90586e8bd,Chicago,Chicago U.S. Export Assistance Center,US,IL,"233 North Michigan Avenue,Suite 260,Chicago, IL 60601,http://export.gov/illinois",Office.Chicago@trade.gov,312-353-8120,,312-353-8040,D,
/sites/GM/USA/Northeast/NewYork,New-York,New York,New York,GM-CS USA-Field-NorthEast-NewYork,USA-Field-NorthEast-NewYork_AllUsers,GM-USA,5914b8d9ed8d1911cdd9cfaece6be527c3f003da,New York,U.S. Commercial Service - New York,US,NY,"290 Broadway, Suite 1312,New York, NY 10007,http://www.export.gov/newyork/",Office.NewYork@trade.gov,212-809-2687,,212-809-2675,D,
/sites/GM/Asia/Pakistan/Karachi,Karachi,Karachi,Karachi,GM-CS Asia-Field-Pakistan-Karachi,Asia-Field-PakistanKarachi_AllUsers,GM-International,b5adf7ddc84afb9fcd693ac1e2617fa32f305779,Karachi,Karachi,PK,null,"3, 4, 5, New TPX Area, Mai Kolachi Road,,Karachi, Pakistan.",Malik.Attiq@trade.gov,92-21-3561-2413,Mail care of SCO in Islamabad,92-21-3527-5017,F,
/sites/GM/EUR/EURASIA/Kiev,Ukraine,Ukraine,Kiev,GM-CS EUR-Field-EURASIA-Kiev,GM-CS_EUR-Field-EURASIA-Kiev_AllUsers,GM-International,1d47e31837d376ef1c10083a244f8a51a3d75c8f,Kiev,Kiev,UA,null,"4,Igor Sikorsky Street (formerly Tankova St.),Kyiv, Ukraine 04112",office.kiev@trade.gov,380 (44) 521-5727,For expedited delivery - use courier addressed to our international address.,380 (44) 521-5244,F,
/sites/GM/USA/Northeast/Rochester,Rochester,Rochester,Rochester,GM-CS USA-Field-NorthEast-Rochester,USA-Field-NorthEast-Rochester_AllUsers,GM-USA,d7b378dda3b52517d4f0a8ada573ffbbc98ae989,Rochester,U.S. Commercial Service - Rochester,US,NY,"400 Andrews St., Suite 300,Rochester, NY  14604,http://www.export.gov/newyork/bflorochsyr",Timothy.McCall@trade.gov,585-423-7570,,585-399-7065,D,
/sites/GM/USA/MidAtlantic/Richmond,Richmond,Richmond,Richmond,GM-CS USA-Field-MidAtlantic-Richmond,USA-Field-MidAtlantic-Richmond_AllUsers,GM-USA,f420088ed12b3ceabac3b67d2fa4b3c71b841500,Richmond,Richmond U.S. Export Assistance Center,US,VA,"400 N. 8th St., Suite 1028,Richmond, VA  23219,http://www.export.gov/virginia",joshua.kaplan@trade.gov,,,804-461-9324,D,
/sites/GM/Asia/Taiwan/Kaohsiung,Kaohsiung,Kaohsiung,Kaohsiung,GM-CS Asia-Field-Taiwan-Kaohsiung,Asia-Field-TaiwanTaipei_AllUsers,GM-International,a7d179826567260bb0549302488c47a104b8177b,Kaohsiung,American Institute in Taiwan - Kaohsiung,TW,null,"5 FL. No. 88, Chenggong 2nd Road, Kaohsiung 80661, Taiwan",Office.Kaohsiung@trade.gov,88673380551,,88673355006 Ext. 6120,F,
/sites/GM/China/Shenyang,Shenyang,Shenyang,Shenyang,GM-CS China-Field-China-Shenyang,China-Field China-Shenyang_AllUsers,GM-International,31ee52e7cc864d4776ddb422731ed92789bffe67,Shenyang,Shenyang,CN,null,"52 Shi Si Wei Road, Heping District,Shenyang, 110003",Taylor.Moore@trade.gov,011-86-24-2322-2206,,011-86-24-2322-1198,F,
/sites/GM/Asia/India/Ahmedabad,Ahmedabad,Ahmedabad,Ahmedabad,GM-CS Asia-Field-India-Ahmedabad,Asia-Field-IndiaAhmedabad_AllUsers,GM-International,c8137f708db3706016fbc9b661ec137b33444ec1,Ahmedabad,Ahmedabad,IN,null,"5th Floor, Radisson Blu Hotel, Panchvati Cross Road,Off. C G Road, Ambawadi - 380 006",office.ahmedabad@trade.gov,+91 79 2656 0763,,+91 79 2656 5210,F,
/sites/GM/China/Guangzhou,Guangzhou,Guangzhou,Guangzhou,GM-CS China-Field-China-Guangzhou,China-Field China-Guangzhou_AllUsers,GM-International,f2e20cfe3c00f2f7261ff38ad66446b0d3f09e07,Guangzhou,Guangzhou,CN,null,"American Consulate General Guangzhou,US Commercial Service,NO.43 Hua Jiu Road, Zhujian New Town,Guangzhou, 510623,China",office.guangzhou@trade.gov,0086-20-3814-5310,Please mail via courier to street address if possible.  Packages send to Washington mailing address takes at least two weeks to arrive.,0086-20-3814-5000,F,
/sites/GM/China/HongKong,Hong-Kong,Hong Kong,Hong Kong,GM-CS China-Field-HongKong,GM-CS China-Field-HongKong_AllUsers,GM-International,2a273be9fa803a4cde8e13a28900ae967bf0cd77,Hong Kong,Hong Kong,HK,null,"American Consulate General,U.S. Commercial Service,26 Garden Road, Central,Hong Kong",office.hongkong@trade.gov,011-852-2845-9800,"For courier delivery, use the street address.  For sending regular mail or pouch, use the mailing address from U.S.",011-852-2521-1467,F,
/sites/GM/EUR/Germany/Frankfurt,Frankfurt,Frankfurt,Frankfurt,GM-CS EUR-Field-GEAUS-Germany-Frankfurt,GM-CS_EUR-Field-GEAUS-Germany-Frankfurt_AllUsers,GM-International,d956d71f74c151aab435451558f8262bca0cc82b,Frankfurt,Frankfurt,DE,null,"American Consulate General,U.S. Commercial Service,Giessener Str. 30,60435 Frankfurt,Germany,http://www.export.gov/germany/",Office.Frankfurt@trade.gov,+49 69 7535 3171,,+49 69 7535 3120,F,
/sites/GM/EUR/Germany/Munich,Munich,Munich,Munich,GM-CS EUR-Field-GEAUS-Germany-Munich,GM-CS_EUR-Field-GEAUS-Germany-Munich_AllUsers,GM-International,de8ce6f858763cbdbefc697cd1430b74f2c01c5f,Munich,Munich,DE,null,"American Consulate General,U.S. Commercial Service,Koeniginstr. 5,80539 Munich",office.munich@trade.gov,+49 89 28 52 61,,+49 89 2888 754,F,
/sites/GM/MEA/Gulf/UAE/Dubai,Dubai,Dubai,Dubai,GM-CS MEA-Field-Gulf-UAE-Dubai,GM-CS_MEA-Field-Gulf-UAE-Dubai_AllUsers,GM-International,39d133861d4865d795c8aeb0296684499c3a5a94,Dubai,Dubai,AE,null,"American Consulate General,U.S. Commercial Service,Umm Hurair 1, Bur Dubai,Dubai, U.A.E.",Office.Dubai@trade.gov,+971-4-354-7090,Please allow 4-6 weeks for pouch delivery.,+971-4-309-4000,F,
/sites/GM/EUR/Italy/Milan,Milan,Milan,Milan,GM-CS EUR-Field-Italy-Milan,GM-CS_EUR-Field-Italy-Milan_AllUsers,GM-International,9b8a1402bc426cb4d34fa4ad6970a600bd992517,Milan,Milan,IT,null,"American Consulate General,U.S. Commercial Service,Via Principe Amedeo 2,20121 Milan,Italy",Office.Milan@trade.gov,011-39-02-659-6561,,011-39-02-626-8851,F,
/sites/GM/MEA/Africa/Lagos,Nigeria,Nigeria,Lagos,GM-CS MEA-Field-Africa-Lagos,GM-CS_MEA-Field-Africa-Lagos_AllUsers,GM-International,dca7a63ce85afd8c361fbb236b494e640d96cc5e,Lagos,Lagos,NG,null,"American Consulate General,US Commercial Service,2 Walter Carrington Crescent, Victoria Island,Lagos, Nigeria",Office.Lagos@trade.gov,N/A,"U.S. Mail, Courier services (e.g. Fedex, UPS) accepted.   Package size/weight restrictions.",011-234-1 460-3581,F,
/sites/GM/Asia/Australia/Perth,Perth,Perth,Perth,GM-CS Asia-Field-ANZ-Australia-Perth,Asia-Field-ANZ-AustraliaPerth_AllUsers,GM-International,5f89935fcd568697c731608c3f74a47ffb680785,Perth,Perth,AU,null,"American Consulate General,US Commercial Service,Level 4, 16 St. Georges Terrace,Perth WA 6000 Australia,http://www.export.gov/australia",office.australia@trade.gov,011-61-8-9231-9444,,011-61-8-6144-5149,F,
/sites/GM/Asia/Australia/Sydney,Sydney,Sydney,Sydney,GM-CS Asia-Field-ANZ-Australia-Sydney,Asia-Field-ANZ-AustraliaSydney_AllUsers,GM-International,bcf911b0c460353ff6088ccb413a9e40516e4f4c,Sydney,Sydney,AU,null,"American Consulate General,US Commercial Service,Level 59, MLC Centre,19-29 Martin Place,Sydney NSW 2000",office.australia@trade.gov,,As above. Use street address if sending material via courier.,011-61-2-9373-9202,F,
/sites/GM/EUR/Germany/Dusseldorf,Dusseldorf,Dusseldorf,Dusseldorf,GM-CS EUR-Field-GEAUS-Germany-Dusseldorf,GM-CS_EUR-Field-GEAUS-Germany-Dusseldorf_AllUsers,GM-International,69e9590e5b14b1adaa0ab1ecb9987778ab6fe605,Dusseldorf,Dusseldorf,DE,null,"American Consulate General,US Commercial Service,Willi-Becker-Allee 10,40227 Dusseldorf",Office.Dusseldorf@trade.gov,+49 211 737 767 67,,+49 211 737 767 0,F,
/sites/GM/Asia/Pakistan/Lahore,Lahore,Lahore,Lahore,GM-CS Asia-Field-Pakistan-Lahore,Asia-Field-PakistanLahore_AllUsers,GM-International,5fc56576703015de5ac929c1de8ae95cf9891d4e,Lahore,Lahore,PK,null,"American Consulate,50 Shahrah-E-Bin Badees,Lahore",Aftab.Qamar@trade.gov,92-42-603-4229,Mail APO care of SCO in Islamabad.,92-42-603-4000,F,
/sites/GM/EUR/Lisbon,Portugal,Portugal,Lisbon,GM-CS EUR-Field-SPG-Lisbon,GM-CS-EUR-Field-SPG-Lisbon_AllUsers,GM-International,dbbf2ab2038619ca475b76cf459a50337a529f0c,Lisbon,Lisbon,PT,null,"American Embassy Lisbon,U.S. Commercial Service,Avenida das Forcas Armadas,1649-044 Lisbon",Office.Lisbon@trade.gov,011-351-21-726-8914,"When using courier, please use DHL or UPS to the street address",011-351-21-770 2528 / 727 3300,F,
/sites/GM/Asia/ASEAN/Rangoon,Burma,Burma,Rangoon,GM-CS Asia-Field-ASEAN-Rangoon,Asia-Field-ASEAN-Rangoon_AllUsers,GM-International,b83a869e0331398bba08736bcbd30553049319d5,Rangoon,Rangoon,MM,null,"American Embassy Rangoon,US Commercial Service,110 University Ave,Kamayut Township 11041,Yangon, Myanmar",DesaiMS@state.gov,,,95-1 536-509 x4435,F,
/sites/GM/Asia/Australia/Canberra,Canberra,Canberra,Canberra,GM-CS Asia-Field-ANZ-Australia-Canberra,Asia-Field-ANZ-AustraliaCanberra_AllUsers,GM-International,00d37db202e7324e0f47cfad9671781edfdbb082,Canberra,Canberra,AU,null,"American Embassy,Attn: U.S. Commercial Service,Moonah Place,Yarralumla  ACT 2600,AUSTRALIA",Office.Australia@trade.gov,011-61-2-9221-0573,As above. Use street address if sending material via courier.,011-61-2-9373-9205,F,
/sites/GM/MEA/North/Africa/Amman,Jordan,Jordan,Amman,GM-CS MEA-Field-NorthAfrica-Amman,GM-CS_MEA-Field-NorthAfrica-Amman_AllUsers,GM-International,61ea024cb7c961b8280e6af02dcedddf3a263c03,Amman,Amman,JO,null,"American Embassy,Commercial Section,Umaween Street, Abdoun Area,P.O. Box 354,Amman 11118 Jordan",office.amman@trade.gov,011-962-6-592-0146,Work Week: Sunday - Thursday,011-962-6-590-6632,F,
/sites/GM/Asia/Pakistan/Islamabad,Islamabad,Islamabad,Islamabad,GM-CS Asia-Field-Pakistan-Islamabad,Asia-Field-PakistanIslamabad_AllUsers,GM-International,99cde051c42f17f2c23d6d24ff04928a9873313c,Islamabad,Islamabad,PK,null,"American Embassy,Diplomatic Enclave,Ramna-5,Islamabad, PAKISTAN",Steve.Knode@trade.gov,92-51-282-3981,Use DPO address for regular mail.  FEDEX to the street address.      Work Week: Monday - Friday,92-51-201-4000,F,
/sites/GM/MEA/Gulf/UAE/AbuDhabi,Abu-Dhabi,Abu Dhabi,Abu Dhabi,GM-CS MEA-Field-Gulf-UAE-AbuDhabi,GM-CS_MEA-Field-Gulf-UAE-AbuDhabi_AllUsers,GM-International,0dba6aea47e20a8866f197407714b0d33fa437e7,Abu Dhabi,Abu Dhabi,AE,null,"American Embassy,Embassies District,Plot 38, Sector W59-02,Street No 4,Abu Dhabi, UAE",Office.Abudhabi@trade.gov,971-2-414-2228,Work Week: Sunday - Thursday,971-2-414-2304,F,
/sites/GM/EUR/TheHague,Netherlands,Netherlands,The Hague,GM-CS EUR-Field-Benelux-TheHague,GM-CS_EUR-Field-Benelux-TheHague_AllUsers,GM-International,f9d328aa6f171318833330e510bfde473571cc6b,The Hague,The Hague,NL,null,"American Embassy,John Adams Park 1,2244 BZ Wassenaar",office.netherlands@trade.gov,N/A,,+31-70-3102417,F,
/sites/GM/WH/Mexico/MexicoCity,Mexico-City,Mexico City,Mexico City,GM-CS WH-Field-Mexico-MexicoCity,WH-Field-Mexico-MexicoCity_AllUsers,GM-International,dc2032b1353095dfc8dd152f5f9416a48abeff9b,Mexico City,Mexico City,MX,null,"American Embassy,U.S. Commercial Service - Mexico City,Liverpool 31, Col. Juarez,06600 Mexico, D.F.",Office.MexicoCity@trade.gov,52-55-5080-2199,"All promotional materials for Gold Keys, missions, IPSs, shows, etc. should be sent to the street address using a courier service. Using regular mail or the P.O Box address will delay delivery.  On mailing label, claim ""no commercial value.""",52-55-5080-2000,F,
/sites/GM/Asia/Japan/Tokyo,Tokyo,Tokyo,Tokyo,GM-CS Asia-Field-Japan-Tokyo,Asia-Field-JapanTokyo_AllUsers,GM-International,3db8b73d5f3f83e790c4202f9d6860b91cb2b89a,Tokyo,Tokyo,JP,null,"American Embassy,U.S. Commercial Service,1-10-5 Akasaka, Minato-ku,Tokyo 107-8420",Office.Tokyo@trade.gov,81-3-3224-5064,,81-3-3224-5060,F,
/sites/GM/EUR/Sofia,Bulgaria,Bulgaria,Sofia,GM-CS EUR-Field-RSCO-Bucharest,GM-CS_EUR-Field-Balkans-Sofia_AllUsers,GM-International,31b09b1df35b613b4fcef659f93eae0e49a4fa09,Sofia,Sofia,BG,null,"American Embassy,U.S. Commercial Service,16, Kozyak St.,1408 Sofia,Bulgaria",Office.Sofia@trade.gov,359-2-939-5735,Postage for both Pouch and APO is U.S. domestic mail rate.,359-2-939-5784,F,
/sites/GM/Asia/ASEAN/Singapore,Singapore,Singapore,Singapore,GM-CS Asia-Field-ASEAN-Singapore,Asia-Field-ASEAN-Singapore_AllUsers,GM-International,3dd3393ea410678eb9c0de86cdd649283762a29b,Singapore,Singapore,SG,null,"American Embassy,U.S. Commercial Service,27 Napier Road,Singapore,258508",office.singapore@trade.gov,65-6476-9080,,65-6476-9037,F,
/sites/GM/EUR/Germany/Berlin,Berlin,Berlin,Berlin,GM-CS EUR-Field-GEAUS-Germany-Berlin,GM-CS_EUR-Field-GEAUS-Germany-Berlin_AllUsers,GM-International,d8b3645c9bd48b4e6a2572388ad47380df2674f9,Berlin,Berlin,DE,null,"American Embassy,U.S. Commercial Service,Clayallee 170,14191 Berlin",Office.Berlin@trade.gov,+49 30 8305 1949,Use APO address whenever possible,+49 30 8305 1940,F,
/sites/GM/EUR/Nordics/Oslo,Norway,Norway,Oslo,GM-CS EMEA-Field-Nordics-Oslo,GM-CS_EUR-Field-Nordics-Oslo_AllUsers,GM-International,871b92b1cf8b06b118823a1179ab2a2f8f88dd39,Oslo,Oslo,NO,null,"American Embassy,U.S. Commercial Service,Morgedalsvegen 36,0244 Oslo,Norway",office.oslo@trade.gov,n/a,http://export.gov/norway/,(47) 21 30 88 66,F,
/sites/GM/EUR/Italy/Rome,Rome,Rome,Rome,GM-CS EUR-Field-Italy-Rome,GM-CS_EUR-Field-Italy-Rome_AllUsers,GM-International,7df8b7b065c6550b7f9c5c27b6cecbdcc2162072,Rome,Rome,IT,null,"American Embassy,U.S. Commercial Service,Via Vittorio Veneto 119/A,00187 Rome,Italy",Office.Rome@trade.gov,011-39-06-4674-2113,,011-39-06-4674-2382,F,
/sites/GM/EUR/UK/Dublin,Ireland,Ireland,Dublin,GM-CS EUR-Field-UK-Dublin,GM-CS_EUR-Field-UK-Dublin_AllUsers,GM-International,3aa31f6fa4cf2010b8cb0420d3bd8085af53e3a6,Dublin,Dublin,IE,null,"American Embassy,US Commercial Service,42 Elgin Road, Ballsbridge,,Dublin 4",office.dublin@trade.gov,353-1-667-4754,"For courier delivery, use street address.  For sending regular mail, use mailing address.",353-1-237-5850,F,
/sites/GM/WH/Canada/Ottawa,Ottawa,Ottawa,Ottawa,GM-CS WH-Field-Canada-Ottawa,WH-Field-CanadaOttawa_AllUsers,GM-International,ca0ead9f7d1504712b3428f9028f077db9e74134,Ottawa,Ottawa,CA,null,"American Embassy,US Commercial Service,490 Sussex Drive,Ottawa, Ontario K1N 1G8",Office.Ottawa@trade.gov,613/238-5999,,613/688-5217,F,
/sites/GM/MEA/North/Africa/Cairo,Egypt,Egypt,Cairo,GM-CS MEA-Field-NorthAfrica-Cairo,GM-CS_MEA-Field-NorthAfrica-Cairo_AllUsers,GM-International,a57b661d8533bee084d4d656c61940c128e44617,Cairo,Cairo,EG,null,"American Embassy,US Commercial Service,8 Kamal El Din Salah St.,Garden City, Cairo,EGYPT",Office.Cairo@trade.gov,011-20-2-795-8368,By APO,011-20-2-797-2340,F,
/sites/GM/EUR/EURASIA/Russia/Moscow,Moscow,Moscow,Moscow,GM-CS EUR-Field-EURASIA-Russia-Moscow,GM-CS-EUR-Field-EURASIA-Russia-Moscow_AllUsers,GM-International,23310a2b0d7a8e2f56432b64913f2f170036d383,Moscow,Moscow,RU,null,"American Embassy,US Commercial Service,Bolshoy Deviatinsky Pereulok, 8,Moscow, 121099",office.Moscow@trade.gov,7-495-728-5585,All couriered items should be sent via DHL - DO NOT USE FedEx,7-495-728-5580,F,
/sites/GM/Asia/ASEAN/Bangkok,Thailand,Thailand,Bangkok,GM-CS Asia-Field-ASEAN-Bangkok,Asia-Field-ASEAN-Bangkok_AllUsers,GM-International,5c521de0d16798dca8a7b97de098beac6118940e,Bangkok,Bangkok,TH,null,"American Embassy,US Commercial Service,GPF Witthayu, Tower A, Suite 302,93/1 Wireless Road,,Pathumwan, Bangkok 10330",Office.Bangkok@trade.gov,66-2-255-2915,,66-2-205-5090,F,
/sites/GM/EUR/Nordics/Helsinki,Finland,Finland,Helsinki,GM-CS EMEA-Field-Nordics-Helsinki,GM-CS_EUR-Field-Nordics-Helsinki_AllUsers,GM-International,39e454492df4a3f0b959264237158fec3d8f138e,Helsinki,Helsinki,FI,null,"American Embassy,US Commercial Service,Itainen Puistotie 14 B,FIN-00140 Helsinki,Finland",Office.Helsinki@trade.gov,,,(358) 9 616 250,F,
/sites/GM/WH/Montevideo,Uruguay,Uruguay,Montevideo,GM-CS WH-Field-ARGUR-Montevideo,WH-Field-ARGUR-Montevideo_AllUsers,GM-International,9930fd412388ad2d541356ebef454642766da599,Montevideo,Montevideo,UY,null,"American Embassy,US Commercial Service,Lauro Muller 1776,Montevideo 11200,Uruguay",Office.Montevideo@trade.gov,598-2 418-8581,"Mail sent by courier delivery should be sent to American Embassy, US Commercial Service, Lauro Muller 1776, Montevideo 11200, Uruguay.  All mail sent by regular post or pouch should be sent to US Embassy Montevideo, Unit 4502, APO  AA  34035",598-21770 2322,F,
/sites/GM/EUR/Brussels,Belgium,Belgium,Brussels,GM-CS EUR-Field-Benelux-Brussels,GM-CS_EUR-Field-Benelux-Brussels_AllUsers,GM-International,c5e50f7fbbbeecbaf58adde4de9530286d269441,Brussels,U.S. Commercial Service Brussels,BE,null,"American Embassy,US Commercial Service,Regentlaan 27 Boulevard du Regent,1000 Brussels,Belgium",Office.Brussels@trade.gov,+32 2 512 3644,APO mail should be addressed to SCO,+32 2 811 4496,F,
/sites/GM/EUR/Budapest,Hungary,Hungary,Budapest,GM-CS EUR-Field-Balkans-Budapest,GM-CS_EUR-Field-Balkans-Budapest_AllUsers,GM-International,c4d0ad83cb7d6f44892f073b934092b45e898f82,Budapest,Hungary,HU,null,"American Embassy,US Commercial Service,Szabadsag ter 12.,H-1054 Budapest",Office.Budapest@trade.gov,011-36-1-475-4205,"Please note that if the Washington DC address is used, expect 3-4 weeks for delivery.  For courier service, please use the Budapest address.",011-36-1-475-4090,F,
/sites/GM/Asia/ASEAN/Jakarta,Indonesia,Indonesia,Jakarta,GM-CS Asia-Field-ASEAN-Jakarta,Asia-Field-ASEAN-Jakarta_AllUsers,GM-International,12fdd588d3672d13105eadf3fcabd1ec7744f7f2,Jakarta,Jakarta,ID,null,"American Embassy,US Commercial Service,World Trade Center 6, 3rd Floor,Jl. Jendral Sudirman Kav. 29-31,Jakarta 12920",office.jakarta@trade.gov,(62-21) 526-2855,,(62-21) 526-2850,F,
/sites/GM/Asia/Taiwan/Taipei,Taipei,Taipei,Taipei,GM-CS Asia-Field-Taiwan-Taipei,Asia-Field-TaiwanKaohsiung_AllUsers,GM-International,6d7a60de9ffaf80354ba5bdfa61c477283056798,Taipei,American Institute in Taiwan - Taipei,TW,null,"American Institute in Taiwan,32nd Floor,333 Keelung Road Section 1,Suite 3207,Taipei 110",Office.Taipei@trade.gov,+886-2-2757-7162,,+886-2-2720-1550,F,
/sites/GM/WH/PanamaCity,Panama,Panama,Panama City,GM-CS WH-Field-ANDPAN-PanamaCity,WH-Field-ANDPAN-PanamaCity_AllUsers,GM-International,b4db849dff0b19e1ec95430ac468fc9842a8bdf7,Panama City,Panama City,PA,null,"Antigua Base de Clayton,Edificio 783,Calle Demetrio Basilio Lakas,Panama, Rep. de Panama",John.Coronado@trade.gov,(507) 317-5573,"For courier street address, for regular mail from any post  the mailing address",(507) 317-5000,F,
/sites/GM/EUR/Turkey/Ankara,Ankara,Ankara,Ankara,GM-CS EUR-Field-Turkey-Ankara,GM-CS_EUR-Field-Turkey-Ankara_AllUsers,GM-International,3d833bffbd049d272843f4d631c657d314799082,Ankara,Ankara,TR,null,"ASO Building,193 Ataturk Bulvari,06600 Kavaklidere,Ankara Turkey",Office.Ankara@trade.gov,(90) 312 428-8760,"Official Mail has to be sent using the Diplomatic Pouch address.  Do not write Ankara or Turkey when using DPO address, it may cause mail to be misdirected.",(90) 312 455-5555,F,
/sites/GM/USA/Southern/Atlanta,Atlanta,Atlanta,Atlanta,GM-CS USA-Field-Southern-Atlanta,USA-Field-Southern-Atlanta_AllUsers,GM-USA,814f8931b5218ae5116b8d9181c007b9c10a9b62,Atlanta,Atlanta U.S. Export Assistance Center,US,GA,"Atlanta U.S. Export Assistance Center,230 Peachtree Street, Suite 1725,Atlanta, GA  30303,http://www.export.gov/georgia/",Office.Atlanta@trade.gov,404-730-4819,,404-730-2704,D,
/sites/GM/WH/Brazil/BeloHorizonte,Belo-Horizonte,Belo Horizonte,Belo Horizonte,GM-CS WH-Field-Brazil-BeloHorizonte,WH-Field-Brazil-BeloHorizonte_AllUsers,GM-International,8129bf83202b7eda6fd05bf958e0dd311371b428,Belo Horizonte,Belo Horizonte,BR,null,"Av. Contorno, 4520 - 2nd floor,Funcionarios,30110-028 Belo Horizonte (MG),Brazil",Office.BeloHorizonte@trade.gov,+55 31 3338-4007,,+55 31 3338-4000,F,
/sites/GM/WH/Brazil/Rio,Rio-De-Janeiro,Rio De Janeiro,Rio De Janeiro,GM-CS WH-Field-Brazil-Rio,WH-Field-Brazil-Rio_AllUsers,GM-International,812092d5ffb47f69bcec0422d3923750e1cbab84,Rio De Janeiro,Rio de Janeiro,BR,null,"Av. Presidente Wilson, 147 / 4º Andar,Rio De Janeiro  RJ  20030-020",Office.riodejaneiro@trade.gov,55-21-3823-2424,,55-21-3823-2000,F,
/sites/GM/USA/MidAtlantic/Baltimore,Baltimore,Baltimore,Baltimore,GM-CS USA-Field-MidAtlantic-Baltimore,USA-Field-MidAtlantic-Baltimore_AllUsers,GM-USA,6f8a763f9eb44c76df9e97cf31358513078c9320,Baltimore,Baltimore U.S. Export Assistance Center,US,MD,"Baltimore U.S. Export Assistance Center,300 West Pratt St., Suite 300,Baltimore, MD  21201,http://www.export.gov/maryland/",office.baltimore@trade.gov,410-962-4529,,410-962-4539,D,
/sites/GM/USA/Southern/Birmingham,Birmingham,Birmingham,Birmingham,GM-CS USA-Field-Southern-Birmingham,USA-Field-Southern-Birmingham_AllUsers,GM-USA,c4ebdc7a3b33c4e3bd8fb31c5bf2a3bf4e9332e4,Birmingham,Birmingham U.S. Export Assistance Center,US,AL,"Birmingham U.S. Export Assistance Center,950 22nd Street North, Suite 773,Birmingham, AL  35203-5309,http://www.export.gov/alabama/",Robert.Stackpole@trade.gov,205-731-0076,,205-731-1331,D,
/sites/GM/USA/PacificNorth/Boise,Boise,Boise,Boise,GM-CS USA-Field-PacificNorth-Boise,USA-Field-PacificNorth-Boise_AllUsers,GM-USA,a3d6569d9ca25768668ddc7db74ecb0b46a12361,Boise,Boise U.S. Export Assistance Center,US,ID,"Boise U.S. Export Assistance Center,700 W. State St., 2nd Floor,Boise, ID 83720,http://www.export.gov/idaho",Amy.Benson@trade.gov,208-334-2631,,208-364-7791,D,
/sites/GM/USA/Northeast/Boston,Boston,Boston,Boston,GM-CS USA-Field-NorthEast-Boston,USA-Field-NorthEast-Boston_AllUsers,GM-USA,5fbc07116714cc3691cca44e9b96250caa8d631b,Boston,Boston U.S. Export Assistance Center,US,MA,"Boston U.S. Export Assistance Center,JFK Federal Building,55 New Sudbury St., Suite 1826A,Boston, MA 02203,http://www.export.gov/Massachusetts/",Office.Boston@trade.gov,617-565-4313,,617-565-4301,D,
/sites/GM/USA/MidAtlantic/Charlotte,Charlotte,Charlotte,Charlotte,GM-CS USA-Field-MidAtlantic-Charlotte,USA-Field-MidAtlantic-Charlotte_AllUsers,GM-USA,19d47d036cebe2887428d3fab4b877d3f1879279,Charlotte,Charlotte U.S. Export Assistance Center,US,NC,"Charlotte U.S. Export Assistance Center,521 E. Morehead St., Suite 435,Charlotte, NC 28202,http://www.export.gov/northcarolina/",greg.sizemore@trade.gov,704-332-2681,,704-333-4886,D,
/sites/GM/USA/GreatLakes/Cincinnati,Cincinnati,Cincinnati,Cincinnati,GM-CS USA-Field-GreatLakes-Cincinnati,USA-Field-GreatLakes-Cincinnati_AllUsers,GM-USA,1a8c47b66548c1f8dd28122c7c83acafc1cb766c,Cincinnati,Cincinnati U.S. Export Assistance Center,US,OH,"Cincinnati U.S. Export Assistance Center,36 E. 7th St., Suite 2025,Cincinnati, OH 45202,http://www.export.gov/ohio/southernohio/",Marcia.Brandstadt@trade.gov,513-684-3200,,513-684-2947,D,
/sites/GM/Asia/NewZealand/Auckland,Auckland,Auckland,Auckland,GM-CS Asia-Field-ANZ-NewZealand-Auckland,Asia-Field-ANZ-NewZealand-Auckland_AllUsers,GM-International,60455b7df8ac7b7f900eafa2180fbbf9fbaea5e0,Auckland,Auckland,NZ,null,"Citibank Building,23 Customs Street East,Level 3,Auckland",office.auckland@trade.gov,011-649-302-3156,,011-649-309-8079,F,
/sites/GM/USA/GreatLakes/Columbus,Columbus,Columbus,Columbus,GM-CS USA-Field-GreatLakes-Columbus,USA-Field-GreatLakes-Columbus_AllUsers,GM-USA,e66de056e3e21100b14ca39bc3155b9cca8d638b,Columbus,Columbus U.S. Export Assistance Center,US,OH,"Columbus U.S. Export Assistance Center,401 N. Front St., #200,Columbus, OH 43215,http://export.gov/ohio/centralohio/index.asp",roberta.ford@trade.gov,614-365-9598,,614-365-9510,D,
/sites/GM/MEA/North/Africa/Beirut,Lebanon,Lebanon,Beirut,GM-CS MEA-Field-NorthAfrica-Beirut,GM-CS_MEA-Field-NorthAfrica-Beirut_AllUsers,GM-International,8b56b6f1cada9db06feae4f759d8cb2299a0fd4c,Beirut,Beirut,LB,null,"Commercial Section,American Embassy,PO Box 70-480,Awkar, Lebanon",Naaman.Tayyar@trade.gov,961-4-541-788,Work Week: Monday - Friday,961-4-544-860,F,
/sites/GM/EUR/RSCO-Bucharest,Romania,Romania,Bucharest,GM-CS EUR-Field-RSCO-Bucharest,GM-CS_EUR-Field-RSCO-Bucharest_AllUsers,GM-International,9d2e31a43a8c0c7f165017a4465eb1becee5965a,Bucharest,Bucharest,RO,null,"Commercial Section,U.S. Embassy,4-6, Dr. Liviu Librescu Blvd.,,District 1, Bucharest 015118,,Romania",office.bucharest@trade.gov,(40-21) 316-0690,Courier delivery using the above Street Address,by pouch using the above Mailing address.,(40-21) 200-3372,
/sites/GM/EUR/Nordics/Copenhagen,Denmark,Denmark,Copenhagen,GM-CS EMEA-Field-Nordics-Copenhagen,GM-CS_EUR-Field-Nordics-Copenhagen_AllUsers,GM-International,391c6951ba9759eaeb3a9982bf448b8a05f0fc86,Copenhagen,Copenhagen,DK,null,"Commercial Service Copenhagen,Dag Hammarskjölds Alle 24,DK-2100 Copenhagen O",office.copenhagen@trade.gov,n/a,,011-45-33417315,F,
/sites/GM/USA/GreatLakes/Louisville,Louisville,Louisville,Louisville,GM-CS USA-Field-GreatLakes-Louisville,USA-Field-GreatLakes-Louisville_AllUsers,GM-USA,c98a282b68ccf53a977d8d9c7ab19839f57cf366,Louisville,Louisville U.S. Export Assistance Center,US,KY,"CS Louisville,601 W. Broadway, Room 634B,Louisville, KY 40202,http://www.export.gov/kentucky/",Peggy.Pauley@trade.gov,502-582-6573,,502-582-5066,D,
/sites/GM/USA/GreatLakes/Detroit,Detroit,Detroit,Detroit,GM-CS USA-Field-GreatLakes-Detroit,USA-Field-GreatLakes-Detroit_AllUsers,GM-USA,9f68f933e6e2a22eb83b1af58e4ddc8426ca156c,Detroit,Detroit U.S. Export Assistance Center,US,MI,"Detroit U.S. Export Assistance Center,211 W. Fort Street, Suite 1310, Detroit,MI 48226,http://www.export.gov/michigan",Sara.Coulter@trade.gov,313-226-3073,,313-226-3006,D,
/sites/GM/USA/GreatLakes/Pontiac,Pontiac,Pontiac,Pontiac,GM-CS USA-Field-GreatLakes-Pontiac,USA-Field-GreatLakes-Pontiac_AllUsers,GM-USA,99ee7501114b1cbf5d9dbb873a9aa956a2dbc782,Pontiac,East Michigan U.S. Export Assistance Center,US,MI,"East Michigan U.S. Export Assistance Center,1200 N Telegraph Rd,Administrative Annex 1, Building 47 West,Pontiac, MI 48341,http://www.export.gov/michigan/",Richard.Corson@Trade.gov,248-975-9606,,248-975-9600,D,
/sites/GM/USA/Southwest/ElPaso,El-Paso,El Paso,El Paso,GM-CS USA-Field-Southwest-ElPaso,USA-Field-Southwest-ElPaso_AllUsers,GM-USA,73ee9452ed281b75edcf3165e02f41b1bded0e2d,El Paso,El Paso U.S. Export Assistance Center,US,TX,"El Paso World Trade Center,9570 Pan American Drive,El Paso, TX 79927,https://export.gov/texas/elpaso",Robert.Queen@trade.gov,915-858-8827,,915-929-6971,D,
/sites/GM/WH/CAFTA/Tegucigalpa,Honduras,Honduras,Tegucigalpa,GM-CS WH-Field-CAFTA-Tegucigalpa,WH-Field-CAFTA-Tegucigalpa_AllUsers,GM-International,776a7e0b239f7f14679b74dd04268e692c417229,Tegucigalpa,Tegucigalpa – GBI Post,HN,null,"Embajada Americana,U.S. Commercial Service,Avenida La Paz,Tegucigalpa M.D.C., Honduras",Office.Tegucigalpa@trade.gov,,,011-504-2236-9320,F,
/sites/GM/WH/Bogota,Colombia,Colombia,Bogota,GM-CS WH-Field-ANDPAN-Bogota,WH-Field-ANDPAN-Bogota_AllUsers,GM-International,dabb07d90b988642e50ef7c740284971daa7f3cd,Bogota,Bogota - GBI Post,CO,null,"Embajada de los Estados Unidos de America,Oficina Comercial,Carrera 45 No 24B-27,Bogota, D.C. COLOMBIA",Office.Bogota@trade.gov,011 571 275 4575 / 275 4575,Use US Priority mail.  Do not use a courier,011 571 275 2519,F,
/sites/GM/MEA/Israel/TelAviv,Tel-Aviv,Tel Aviv,Tel Aviv,GM-CS MEA-Field-Israel-TelAviv,GM-CS_MEA-Field-Israel-TelAviv_AllUsers,GM-International,9ce8c88b222d1943a3e6260d05e65d3613028921,Tel Aviv,"Office Tel Aviv, Covering the Israeli market",IL,null,"Embassy of the United States of America,71 Hayarkon Street,Tel Aviv 6343229",office.telaviv@trade.gov,+972-3-519-8530,Work Week: Monday - Friday,+972-3 -519-8500,F,
/sites/GM/EUR/Bratislava,Slovakia,Slovakia,Bratislava,GM-CS EUR-Field-GEAUS-Bratislava,GM-CS_EUR-Field-GEAUS-Bratislava_AllUsers,GM-International,0886e08c36123c5f54e377c08ab5de0445b4869e,Bratislava,Slovak,SK,null,"Embassy of the United States of America,U.S. Commercial Service,Hviezdoslavovo nam.5,811 02 Bratislava",Office.Bratislava@trade.gov,+421 2 5922 3345,"When sending mail to our local address or by courier service package (FedEx, DHL, etc.), please use the following address:  Americke Velvyslanectvo, U.S. Commercial Service, Hviezdoslavovo namestie 5, 811 02 Bratislava, Slovak Republic",+421 2 5922 3222,F,
/sites/GM/EUR/Nordics/Stockholm,Sweden,Sweden,Stockholm,GM-CS EMEA-Field-Nordics-Stockholm,GM-CS_EUR-Field-Nordics-Stockholm_AllUsers,GM-International,8505f0416d7cab6e34dd57d4ea6c74059ebe0440,Stockholm,Stockholm,SE,null,"Embassy of the United States,US Commercial Service,Dag Hammarskjölds Väg 31,SE -115 89, Stockholm,SWEDEN",Stockholm.office@trade.gov,N/A,"Clients should note that correspondence sent to the U.S. mailing address takes about 15 days to reach Stockholm.  Time-sensitive materials should be sent either by U.S. mail to the street address, or via courier or express delivery service.",46-8-783-5346,F,
/sites/GM/USA/Southern/FortLauderdale,Fort-Lauderdale,Fort Lauderdale,Fort Lauderdale,GM-CS USA-Field-Southern-FortLauderdale,USA-Field-Southern-FortLauderdale_AllUsers,GM-USA,6b1d4c75e35341042a393e98f88402370ca899ca,Fort Lauderdale,Fort Lauderdale U.S. Export Assistance Center,US,FL,"Fort Lauderdale U.S. Export Assistance Center,1850 Eller Drive, Suite 401,Fort Lauderdale, FL 33316,http://www.export.gov/florida/",Office.Miami@trade.gov,954-356-6644,,954-356-6640,D,
/sites/GM/USA/MidAtlantic/Greensboro,Greensboro,Greensboro,Greensboro,GM-CS USA-Field-MidAtlantic-Greensboro,USA-Field-MidAtlantic-Greensboro_AllUsers,GM-USA,1133c60276df32d4ec9ca7983d0b18be9427da0e,Greensboro,Greensboro U.S. Export Assistance Center,US,NC,"Greensboro U.S. Export Assistance Center,330 S. Greene Street, Suite 303,Greensboro, NC 27401,http://www.export.gov/northcarolina",Stephanie.Heckel@trade.gov,336-333-5158,,336-333-5345,D,
/sites/GM/USA/MidAtlantic/Greenville,Greenville,Greenville,Greenville,GM-CS USA-Field-MidAtlantic-Greenville,USA-Field-MidAtlantic-Greenville_AllUsers,GM-USA,ba569c7dda32e57b0042b82207945d9764586ca9,Greenville,Greenville U.S. Export Assistance Center,US,SC,"Greenville U.S. Export Assistance Center,Buck Mickel Center at Greenville Technical College,216 S. Pleasantburg Dr., Suite 243,Greenville, SC 29607,http://www.export.gov/southcarolina/",Shannon.Christenbury@trade.gov,864-250-6729,,864-250-8429,D,
/sites/GM/MEA/Israel/Jerusualem,Jerusalem,Jerusalem,Jerusalem,GM-CS MEA-Field-Israel-Jerusalem,GM-CS_MEA-Field-Israel-Jerusalem_AllUsers,GM-International,e59f9c4388b571e55e19d85b03deb1d016c64185,Jerusalem,"Office Jerusalem, covering the West Bank market",IL,null,"Ground Floor,19 Keren Hayesod Street,91008  JERUSALEM",office.jerusalem@trade.gov,(972-2) 623-5132,,(972-2) 625-5201,F,
/sites/GM/USA/PacificSouth/Honolulu,Honolulu,Honolulu,Honolulu,GM-CS USA-Field-PacificSouth-Honolulu,USA-Field-PacificSouth-Honolulu_AllUsers,GM-USA,5bcfb9b3f96a783d1ed0242445f37b7adc02066a,Honolulu,Hawaii U.S. Export Assistance Center,US,HI,"Hawaii U.S. Export Assistance Center,Foreign Trade Zone #9,521 Ala Moana Blvd., Rm. 214,Honolulu, HI 96813,http://www.export.gov/hawaii/",John.Holman@trade.gov,808-522-8045,,808-522-8040,D,
/sites/GM/USA/Southwest/Houston,Houston,Houston,Houston,GM-CS USA-Field-Southwest-Houston,USA-Field-Southwest-Houston_AllUsers,GM-USA,95bab3f167f70d4366b00f160af161e0b61eb6ee,Houston,Houston U.S. Export Assistance Center,US,TX,"Houston U.S. Export Assistance Center,1919 Smith St., Suite 1026,Houston, TX  77002,http://www.export.gov/texas/houston/",Office.Houston@trade.gov,281-228-5663,,281-228-5650,D,
/sites/GM/USA/GreatLakes/Indianapolis,Indianapolis,Indianapolis,Indianapolis,GM-CS USA-Field-GreatLakes-Indianapolis,USA-Field-GreatLakes-Indianapolis_AllUsers,GM-USA,7bd5541e3bb5b84eb9df6cb49fe01a653d5ebeb8,Indianapolis,Indianapolis U.S. Export Assistance Center,US,IN,"Indianapolis U.S. Export Assistance Center,46 E. Ohio Street,Suite 508,Indianapolis, IN 46204,http://www.export.gov/indiana",Mark.Cooper@trade.gov,317-221-0120,,317-226-6153,D,
/sites/GM/Asia/India/Bangalore,Bangalore,Bangalore,Bangalore,GM-CS Asia-Field-India-Bangalore,Asia-Field-IndiaBangalore_AllUsers,GM-International,c6dfae3c0f6116f2a37592d6c285a1aba69e3656,Bangalore,Bengaluru,IN,null,"J.W. Marriott Hotel, 9th Floor,,24/1, Vittal Mallya Road,,Ashok Nagar, Bengaluru 560001, India",office.bengaluru@trade.gov,+91 80 2227 6405,,+91 80 2227 6401,F,
/sites/GM/USA/Southern/Jacksonville,Jacksonville,Jacksonville,Jacksonville,GM-CS USA-Field-Southern-Jacksonville,USA-Field-Southern-Jacksonville_AllUsers,GM-USA,3adca64ede3046b326ffa68e7602031147d3b62c,Jacksonville,Jacksonville U.S. Export Assistance Center,US,FL,"Jacksonville U.S. Export Assistance Center,3 Independent Drive,Jacksonville, FL 32202,http://www.export.gov/florida",Jorge.Arce@trade.gov,904-232-1271,,904-232-1270,D,
/sites/GM/MEA/Africa/Maputo,Mozambique,Mozambique,Maputo,GM-CS MEA-Field-Africa-Maputo,GM-CS_MEA-Field-Africa-Maputo_AllUsers,GM-International,9f0b9004b7e546c450652e08d6b8d101de636dcc,Maputo,"Mozambique, Maputo US Embassy",MZ,null,"JAT Complex 3, 3rd Floor,Maputo",Tamarind.Murrietta@trade.gov,,MAIL VIA DULLES - DO NOT USE INTERNATIONAL MAIL.,258 21 35 54 18,F,
/sites/GM/USA/GreatLakes/Knoxville,Knoxville,Knoxville,Knoxville,GM-CS USA-Field-GreatLakes-Knoxville,USA-Field-GreatLakes-Knoxville_AllUsers,GM-USA,758935bb2b0307d6dd8635896e4da38a527c1970,Knoxville,Knoxville U.S. Export Assistance Center,US,TN,"Knoxville U.S. Export Assistance Center,17 Market Square, #201,Knoxville, TN  37902-1405,http://www.export.gov/tennessee/knoxville",Robert.Leach@trade.gov,865-545-4435,,865-545-4637,D,
/sites/GM/USA/Southern/LittleRock,Little-Rock,Little Rock,Little Rock,GM-CS USA-Field-Southern-LittleRock,USA-Field-Southern-LittleRock_AllUsers,GM-USA,02878fa8fe46e104e26147357b27b3addad52d7b,Little Rock,Little Rock U.S. Export Assistance Center,US,AR,"Little Rock U.S. Export Assistance Center,425 West Capitol Ave., Suite 425,Little Rock, AR 72201,http://www.export.gov/arkansas/",Office.LittleRock@trade.gov,501-324-7380,,501-324-5794,D,
/sites/GM/USA/GreatLakes/Memphis,Memphis,Memphis,Memphis,GM-CS USA-Field-GreatLakes-Memphis,USA-Field-GreatLakes-Memphis_AllUsers,GM-USA,77871f26ffe2a565953984f989edd853d0ef1add,Memphis,Memphis U.S. Export Assistance Center,US,TN,"Memphis U.S. Export Assistance Center,22 North Front Street, Suite 200,Memphis, TN  38103,http://export.gov/tennessee/memphis",Office.Memphis@trade.gov,901-543-3510,,901-544-0930,D,
/sites/GM/USA/Northeast/Middletown,Middletown,Middletown,Middletown,GM-CS USA-Field-NorthEast-Middletown,USA-Field-NorthEast-Middletown_AllUsers,GM-USA,c9f75d80838d692371d3f3c507a9d12f03d3f6b2,Middletown,Middletown U.S. Export Assistance Center,US,CT,"Middletown U.S. Export Assistance Center,213 Court St., Suite 903,Middletown, CT  06457-3382,http://www.export.gov/connecticut/",Anne.Evans@trade.gov,860-638-6970,,860-638-6950,D,
/sites/GM/USA/MidWest/Minneapolis,Minneapolis,Minneapolis,Minneapolis,GM-CS USA-Field-MidWest-Minneapolis,USA-Field-MidWest-Minneapolis_AllUsers,GM-USA,b9bf2b4fdc34f7a557597408a2601e8b84e72c59,Minneapolis,Minneapolis U.S. Export Assistance Center,US,MN,"Minneapolis U.S. Export Assistance Center,330 2nd Avenue South, Suite 410,Minneapolis, MN 55401,http://www.export.gov/minnesota/",Ryan.Kanne@trade.gov,612-348-1650,,612-348-1638,D,
/sites/GM/USA/Southern/Jackson,Jackson,Jackson,Jackson,GM-CS USA-Field-Southern-Jackson,USA-Field-Southern-Jackson_AllUsers,GM-USA,805612dfdc3300b9e20819bb7bbcdea791032b69,Jackson,Mississippi U.S. Export Assistance Center,US,MS,"Mississippi U.S. Export Assistance Center,1230 Raymond Road, Box 600,Jackson, MS  39204,http://export.gov/mississippi/",Carol.Moore@trade.gov,601-373-0959,,601-373-0773,D,
/sites/GM/USA/Northeast/Montpelier,Montpelier,Montpelier,Montpelier,GM-CS USA-Field-NorthEast-Montpelier,USA-Field-NorthEast-Montpelier_AllUsers,GM-USA,421a35725eb4bb26a99224f08fe602c12a811a27,Montpelier,Montpelier U.S. Export Assistance Center,US,VT,"Montpelier U.S. Export Assistance Center,PO Box 605,87 State Street, Room 205,Montpelier, VT  05601,http://www.export.gov/vermont",Susan.Murray@trade.gov,802-828-3258,,802-828-4508,D,
/sites/GM/USA/MidWest/Fargo,Fargo,Fargo,Fargo,GM-CS USA-Field-MidWest-Fargo,USA-Field-MidWest-Fargo_AllUsers,GM-USA,3f2fb989e0a716043b7dc97069fc877f1a28f5b7,Fargo,Fargo U.S. Export Assistance Center,US,ND,"NDSU Agribusiness and Applied Economics Department at Barry Hall,811 Second Avenue North,Suite 436,Fargo, ND 58102,http://www.export.gov/northdakota",heather.ranck@trade.gov,701-540-0262,,701-239-5080,D,
/sites/GM/China/Chengdu,Chengdu,Chengdu,Chengdu,GM-CS China-Field-China-Chengdu,China-Field China-Chengdu_AllUsers,GM-International,7d00979731f31e47031a7fc022468e3a36a276a6,Chengdu,Chengdu,CN,null,"No. 4,  Lingshiguan Road,Section 4, Renmin Nan Lu,Chengdu, China 610041",Office.Chengdu@trade.gov,+86 28 85589221,,+86 28 85583992,F,
/sites/GM/USA/Northeast/Newark,Newark,Newark,Newark,GM-CS USA-Field-NorthEast-Newark,USA-Field-NorthEast-Newark_AllUsers,GM-USA,9a29d28577fd37ed032dc4265656d486c1a5a698,Northern New Jersey,Northern New Jersey U.S. Export Assistance Center,US,NJ,"Northern New Jersey U.S. Export Assistance Center,20 Washington Place, Suite 615,Newark, NJ 07102,http://www.export.gov/newjersey",Office.Newark@trade.gov,973-645-4783,,973-645-4682,D,
/sites/GM/USA/PacificNorth/Oakland,Oakland,Oakland,Oakland,GM-CS USA-Field-PacificNorth-Oakland,USA-Field-PacificNorth-Oakland_AllUsers,GM-USA,98dd7217c03e4be70bd502b2336fe6516bc7ef00,Oakland,Oakland U.S. Export Assistance Center,US,CA,"Oakland U.S. Export Assistance Center,1301 Clay St., Suite 630N,Oakland, CA 94612,http://export.gov/california/oakland",Rod.Hirsch@trade.gov,510-273-7352,,510-273-7350,D,
/sites/GM/USA/Southern/OklahomaCity,Oklahoma,Oklahoma,Oklahoma City,GM-CS USA-Field-Southern-OklahomaCity,USA-Field-Southern-OklahomaCity_AllUsers,GM-USA,0f519f5193674907e1383ba3db262eef091af0f4,Oklahoma City,Oklahoma City U.S. Export Assistance Center,US,OK,"Oklahoma City U.S. Export Assistance Center,301 NW 63rd St., Suite 420,Oklahoma City, OK 73116,http://www.export.gov/oklahoma",office.oklahomacity@trade.gov,405-608-4211,,405-608-5302,D,
/sites/GM/USA/Southern/Orlando,Orlando,Orlando,Orlando,GM-CS USA-Field-Southern-Orlando,USA-Field-Southern-Orlando_AllUsers,GM-USA,7b797e3df97a4fb8d580c940b6ca54c86560faa1,Orlando,Orlando U.S. Export Assistance Center,US,FL,"Orlando U.S. Export Assistance Center,3201 East Colonial Drive, Suite A-20,Orlando, FL 32803,http://www.export.gov/florida",office.orlando@trade.gov,407-420-4425,,"407-420-4848, ext. 260",D,
/sites/GM/USA/MidWest/Peoria,Peoria,Peoria,Peoria,GM-CS USA-Field-MidWest-Peoria,USA-Field-MidWest-Peoria_AllUsers,GM-USA,3645fe2388770e9f9e215a62739a9692de27c073,Peoria,Peoria U.S. Export Assistance Center,US,IL,"Peoria U.S. Export Assistance Center,922 N. Glenwood Ave., Jobst Hall, Rm. 141,Peoria, IL 61606,http://export.gov/illinois/",Elizabeth.Ahern@trade.gov,309-671-7818,,309-671-7815,D,
/sites/GM/USA/MidAtlantic/Philadelphia,Philadelphia,Philadelphia,Philadelphia,GM-CS USA-Field-MidAtlantic-Philadelphia,USA-Field-MidAtlantic-Philadelphia_AllUsers,GM-USA,1ef812b50b0d718a5498b7fd3bf8bbea7bb47499,Philadelphia,Philadelphia U.S. Export Assistance Center,US,PA,"Philadelphia U.S. Export Assistance Center,One Penn Center,1617 John F. Kennedy Blvd., Suite 1580,Philadelphia, PA 19103,http://www.export.gov/pennsylvania/philadelphia/",Office.Philadelphia@trade.gov,215-597-6123,,215-597-6101,D,
/sites/GM/USA/Southwest/Phoenix,Phoenix,Phoenix,Phoenix,GM-CS USA-Field-Southwest-Phoenix,USA-Field-Southwest-Phoenix_AllUsers,GM-USA,937909227ec6fad872490dc5830f523bd5fde2a5,Phoenix,Phoenix U.S. Export Assistance Center,US,AZ,"Phoenix U.S. Export Assistance Center,2828 N Central Ave, Suite 800,Phoenix, AZ 85004,http://www.export.gov/arizona",Office.Phoenix@trade.gov,602-745-7210,,602-640-2513,D,
/sites/GM/MEA/SaudiArabia/Dhahran,Dhahran,Dhahran,Dhahran,GM-CS MEA-Field-SaudiArabia-Dhahran,GM-CS_MEA-Field-SaudiArabia-Dhahran_AllUsers,GM-International,77c9fb25fc2cce5b1efd8d8c9d2fe33c8e451752,Dhahran,Dhahran,SA,null,"Prince Faisal bin Fahad St., between Aramco HQ and the old Dhahran Airport,Dhahran,P.O. Box 38955, Dhahran (Doha) 31942",Office.Dhahran@trade.gov,+966-(0)13-330-2190,,+966-(0)13-330-3200,F,
/sites/GM/USA/Northeast/Providence,Providence,Providence,Providence,GM-CS USA-Field-NorthEast-Providence,USA-Field-NorthEast-Providence_AllUsers,GM-USA,a9481c78c84f52b4db4f1c2a0ba9d27cbfcff166,Providence,Providence U.S. Export Assistance Center,US,RI,"Providence U.S. Export Assistance Center,315 Iron Horse Way, Suite 101,Providence, RI  02908,http://www.export.gov/rhodeisland/",keith.yatsuhashi@trade.gov,401-528-5067,,401-528-5104,D,
/sites/GM/USA/MidAtlantic/Raleigh,Raleigh,Raleigh,Raleigh,GM-CS USA-Field-MidAtlantic-Raleigh,USA-Field-MidAtlantic-Raleigh_AllUsers,GM-USA,1e663fb0b785381e6a860d01d7c7628eebc88b7a,Raleigh,Raleigh US Export Assistance Center,US,NC,"Raleigh US Export Assistance Center,10900 World Trade Blvd., Suite 110,Raleigh, NC 27617,http://www.export.gov/northcarolina/",greg.sizemore@trade.gov,919-281-2754,,919-281-2750,D,
/sites/GM/USA/PacificSouth/Reno,Reno,Reno,Reno,GM-CS USA-Field-PacificSouth-Reno,USA-Field-PacificSouth-Reno_AllUsers,GM-USA,2a1f6580ce17ec1c45dffdcab9390c7b22e0111e,Reno,Reno U.S. Export Assistance Center,US,NV,"Reno U.S. Export Assistance Center,c/o Reno Sparks Chamber of Commerce,449 S. Virginia, 2nd Floor,Reno, NV 89501,http://www.export.gov/nevada/reno",andrew.edlefsen@trade.gov,775-784-5343,,775-784-5342,D,
/sites/GM/USA/MidWest/Rockford,Rockford,Rockford,Rockford,GM-CS USA-Field-MidWest-Rockford,USA-Field-MidWest-Rockford_AllUsers,GM-USA,2e5fc09b21aca251109b0a06a324490cd165bd47,Rockford,Rockford Illinois U.S. Export Assistance Center,US,IL,"Rockford Illinois U.S. Export Assistance Center,327 South Church Street, Suite 1600,Rockford, IL  61101,http://export.gov/illinois/",Office.Chicago@trade.gov,312-353-8120,Rockford is vacant. Please contact CS Chicago,312-353-8040,D,
/sites/GM/WH/Brazil/Recife,Recife,Recife,Recife,GM-CS WH-Field-Brazil-Recife,WH-Field-Brazil-Recife_AllUsers,GM-International,7bdf8b5c63ceea68e2d23f308a27be318344d9ef,Recife,Recife,BR,null,"Rua Gonçalves Maia, 163 - Boa Vista,50070-060 - Recife – PE",Office.Recife@trade.gov,55-81-3231-1906,,55-81-3416-3075,F,
/sites/GM/WH/Brazil/SaoPaulo,Sao-Paulo,Sao Paulo,Sao Paulo,GM-CS WH-Field-Brazil-SaoPaulo,WH-Field-Brazil-SaoPaulo_AllUsers,GM-International,e8ca4d6b904a1c25b7b16db544f69127405ee6c9,Sao Paulo,São Paulo,BR,null,"Rua Henri Dunant, 700,Chacara Santo Antonio,04709-110 - Sao Paulo - SP,Brazil",Office.SaoPaulo@trade.gov,55/11/3250-5399,,55/11/3250-5172,F,
/sites/GM/MEA/Africa/Luanda,Angola,Angola,Luanda,GM-CS MEA-Field-Africa-Luanda,GM-CS_MEA-Field-Africa-Luanda_AllUsers,GM-International,1530ba91506a5723d0578693a064c38bb2706ff2,Luanda,"Angola, Luanda US Embassy",AO,null,"Rua Houari Boumedienne #32,Luanda",everett.wakai@trade.gov,N/A,,244-222-641-000,F,
/sites/GM/USA/PacificNorth/Sacramento,Sacramento,Sacramento,Sacramento,GM-CS USA-Field-PacificNorth-Sacramento,USA-Field-PacificNorth-Sacramento_AllUsers,GM-USA,1cadf1aa70961280611ba3223d8983d7b4a3d2d3,Sacramento,Sacramento U.S. Export Assistance Center,US,CA,"Sacramento U.S. Export Assistance Center,1410 Ethan Way, Ste. 131 N,Sacramento, CA 95825,http://www.export.gov/california/sacramento/",George.Tastard@trade.gov,916-566-7123,N/A,916-566-7170,D,
/sites/GM/USA/PacificNorth/SaltLakeCity,Salt-Lake-City,Salt Lake City,Salt Lake City,GM-CS USA-Field-PacificNorth-SaltLakeCity,USA-Field-PacificNorth-SaltLakeCity_AllUsers,GM-USA,3f5b4a423c450b931b0b56d1615c9dd83dcacbae,Salt Lake City,Salt Lake City U.S. Export Assistance Center,US,UT,"Salt Lake City U.S. Export Assistance Center,350 S. Main St., Suite 462,Salt Lake City, UT 84101,http://www.export.gov/utah/",office.saltlakecity@trade.gov,801-524-3072,,801-524-3070,D,
/sites/GM/USA/Southwest/SanAntonio,San-Antonio,San Antonio,San Antonio,GM-CS USA-Field-Southwest-SanAntonio,USA-Field-Southwest-SanAntonio_AllUsers,GM-USA,cd7e67f9152f15ab527d14386a3a82f693f3d719,San Antonio,San Antonio U.S. Export Assistance Center,US,TX,"San Antonio U.S. Export Assistance Center,615 E. Houston Street, Suite 207,San Antonio, TX 78205,http://www.export.gov/texas/sanantonio/",Daniel.Rodriguez@Trade.gov,210-472-4019,,210-472-4020,D,
/sites/GM/USA/PacificSouth/SanDiego,San-Diego,San Diego,San Diego,GM-CS USA-Field-PacificSouth-SanDiego,USA-Field-PacificSouth-SanDiego_AllUsers,GM-USA,446c614e5a205a99ac6baca5c4a5aaab1a7ed747,San Diego,San Diego U.S. Export Assistance Center,US,CA,"San Diego U.S. Export Assistance Center,9449 Balboa Avenue, Suite 111,San Diego, CA  92123,http://www.buyusa.gov/sandiego/",Matt.Andersen@trade.gov,858-467-7043,,858-467-7032,D,
/sites/GM/USA/PacificNorth/SanFrancisco,San-Francisco,San Francisco,San Francisco,GM-CS USA-Field-PacificNorth-SanFrancisco,USA-Field-PacificNorth-SanFrancisco_AllUsers,GM-USA,7356082c56e06a052b94992f9b22128f63e7fe31,San Francisco,San Francisco U.S. Commercial Service,US,CA,"San Francisco U.S. Commercial Service,75 Hawthorne St.,2nd Floor, Suite 2500,San Francisco, CA 94105,http://export.gov/california/sanfrancisco",office.sanfrancisco@trade.gov,415-705-2299,,415-705-2300,D,
/sites/GM/USA/PacificNorth/SanJose,San-Jose,San Jose,San Jose,GM-CS USA-Field-PacificNorth-SanJose,USA-Field-PacificNorth-SanJose_AllUsers,GM-USA,944d5c92e0473630596f34ac296a8ab724f947ea,San Jose CA,San Jose (Silicon Valley) U.S. Export Assistance Center,US,CA,"San Jose (Silicon Valley) U.S. Export Assistance Center,55 South Market St., Suite 1040,San Jose, CA  95113,http://export.gov/california/sanjose",Joanne.Vliet@trade.gov,408-535-2758,,408-535-2757,D,
/sites/GM/USA/Southern/Savannah,Savannah,Savannah,Savannah,GM-CS USA-Field-Southern-Savannah,USA-Field-Southern-Savannah_AllUsers,GM-USA,01c2cf1486224597788291bce825ca6e1f42877a,Savannah,Savannah U.S. Export Assistance Center,US,GA,"Savannah U.S. Export Assistance Center,111 E. Liberty St., Suite 202,Savannah, GA 31401,http://www.export.gov/georgia/",Todd.Gerken@trade.gov,912-652-4675,,912-652-4204,D,
/sites/GM/USA/PacificNorth/Seattle,Seattle,Seattle,Seattle,GM-CS USA-Field-PacificNorth-Seattle,USA-Field-PacificNorth-Seattle_AllUsers,GM-USA,2f0901fbcab4c6970216ce67f14d14ebf734cfe1,Seattle,Seattle U.S. Export Assistance Center,US,WA,"Seattle U.S. Export Assistance Center,2001 6th Avenue, Suite 2610,Seattle, WA 98121,http://export.gov/Washington/seattle/",Office.Seattle@trade.gov,206-553-7253,,206-553-5615,D,
/sites/GM/WH/Brazil/Brasilia,Brasilia,Brasilia,Brasilia,GM-CS WH-Field-Brazil-Brasilia,WH-Field-Brazil-Brasilia_AllUsers,GM-International,f50bb6d1be215fcd057e4e6c0308351950961473,Brasilia,Brasilia,BR,null,"SES - Av. das Nações, Quadra 801, Lote 03,Brasilia - DF,70403-900",Office.brasilia@trade.gov,55-61-3312-7656,,55-61-3312-7418,F,
/sites/GM/China/Shanghai,Shanghai,Shanghai,Shanghai,GM-CS China-Field-China-Shanghai,China-Field China-Shanghai_AllUsers,GM-International,ddff3ee48971ad92af016e7ecc14ea7960a8f295,Shanghai,Shanghai,CN,null,"Shanghai Center,Suite 631, East Tower,1376 Nanjing Xi Lu,Shanghai, China  200040",office.shanghai@trade.gov,011-86-21-6279-7639,,011-86-21-6279-7630,F,
/sites/GM/USA/MidWest/SiouxFalls,Sioux-Falls,Sioux Falls,Sioux Falls,GM-CS USA-Field-MidWest-SiouxFalls,USA-Field-MidWest-SiouxFalls_AllUsers,GM-USA,cb035ed9de6209fac728a4fd454591d6aa4a65de,Sioux Falls,South Dakota Export Assistance Center,US,SD,"Sioux Falls U.S. Export Assistance Center,2001 S. Summit Ave,Augustana College / Madsen Center,Sioux Falls, SD 57197,http://www.export.gov/southdakota",Cinnamon.King@trade.gov,605-330-4266,,605-330-4265,D,
/sites/GM/USA/PacificNorth/Spokane,Spokane,Spokane,Spokane,GM-CS USA-Field-PacificNorth-Spokane,USA-Field-PacificNorth-Spokane_AllUsers,GM-USA,14643c92a82c26da5e2b8d2554bb58ccadda66e6,Spokane,Spokane U.S. Export Assistance Center,US,WA,"Spokane U.S. Export Assistance Center,Greater Spokane Incorporated,801 W. Riverside Ave.,Spokane, WA 99201,http://www.export.gov/washington/spokane",office.spokane@trade.gov,503-326-6351,,509-344-9398,D,
/sites/GM/MEA/SaudiArabia/Riyadh,Riyadh,Riyadh,Riyadh,GM-CS MEA-Field-SaudiArabia-Riyadh,GM-CS_MEA-Field-SaudiArabia-Riyadh_AllUsers,GM-International,0b85075747d4bb6ed9029846de994532227ad561,Riyadh,Riyadh,SA,null,"Street Address (not Mailing Address):,American Embassy,Abdullah al-Sahmi St.,Diplomatic Quarter,Riyadh 11693, Saudi Arabia,Mailing Address (Local):,American Embassy,P.O. Box 94309,Riyadh 11693, Saudi Arabia",Office.Riyadh@trade.gov,+966-(0)11-488-3237,Work Week: Saturday - Wednesday,+966-(0)11-488-3800,F,
/sites/GM/USA/Southwest/NewOrleans,New-Orleans,New Orleans,New Orleans,GM-CS USA-Field-Southwest-NewOrleans,USA-Field-Southwest-NewOrleans_AllUsers,GM-USA,b06e049d43c50358717411f821641c22d5cb325e,New Orleans,New Orleans U.S. Export Assistance Center,US,LA,"Suite 419, U.S. Custom House,423 Canal Street,New Orleans, LA  70130,http://www.export.gov/louisiana",office.neworleans@trade.gov,504-589-2337,,504-589-6546,D,
/sites/GM/USA/Southern/Clearwater,Clearwater,Clearwater,Clearwater,GM-CS USA-Field-Southern-Clearwater,USA-Field-Southern-Clearwater_AllUsers,GM-USA,0f7249f00cd82dc6529b819f8f45a733435f809c,Clearwater,Tampa Bay U.S. Export Assistance Center,US,FL,"Tampa Bay U.S. Export Assistance Center,13805 58th Street North, Suite 1-200,Clearwater, FL 33760,http://export.gov/florida/",Sandra.Campbell@trade.gov,,,727-893-3738,D,
/sites/GM/Asia/India/NewDelhi,New-Delhi,New Delhi,New Delhi,GM-CS Asia-Field-India-NewDelhi,Asia-Field-IndiaAhmedabad_AllUsers,GM-International,a0def0bba588f85b5f87a975d107cbd847e626f1,New Delhi,New Delhi,IN,null,"The American Center,24 Kasturba Gandhi Marg,New Delhi 110 001",office.newdelhi@trade.gov,+91 11 2331 5172,Please allow 3 weeks for pouch,+91 11 2347 2000,F,
/sites/GM/Asia/India/Kolkata,Kolkata,Kolkata,Kolkata,GM-CS Asia-Field-India-Kolkata,Asia-Field-IndiaKolkata_AllUsers,GM-International,87b72b5315083890d539ae921191ba9276e09d8b,Kolkata,Kolkata (Calcutta),IN,null,"The American Center,38-A, Jawaharlal Nehru Road,,Kolkata (Calcutta) 700 071",office.calcutta@trade.gov,+91 33 3984 6353,Please allow 3 weeks,+91 33 3984 6402,F,
/sites/GM/EUR/Prague,Czech-Republic,Czech Republic,Prague,GM-CS EUR-Field-PoCz-Prague,GM-CS-EUR-Field-PoCz-Prague_AllUsers,GM-International,424ec5583a789617b7c6ba239e732206c0072aea,Prague,Czech Republic,CZ,null,"Trziste 15,118 01 Praha 1,Czech Republic",Office.Prague@trade.gov,420-257-02-2810,"For courier/express deliveries, use street address. Mailing address from the U.S. is for official post only, but takes 2-3 weeks for delivery.",420-257-022-434,F,
/sites/GM/MEA/Africa/Nairobi,Kenya,Kenya,Nairobi,GM-CS MEA-Field-Africa-Nairobi,GM-CS_MEA-Field-Africa-Nairobi_AllUsers,GM-International,dc29a4ad430a9bba14d50381086a507d883f2ff1,Nairobi,Nairobi,KE,null,"U.N. Avenue Gigiri,P.O. Box 606 Village Market,00621 Nairobi",Office.Nairobi@trade.gov,254-20-363-6722,,254-20-3636000 ext. 6424,F,
/sites/GM/China/Beijing,Beijing,Beijing,Beijing,GM-CS China-Field-China-Beijing,GM-CS_China-Field China-Beijing_AllUsers,GM-International,c0cf42ccbc69329c52d7cbc2b061b126db8c7224,Beijing,Beijing,CN,null,"U.S. Commercial Service - Beijing,No. 55 An Jia Lou Road,,Chaoyang District,Beijing 100600, China",Office.Beijing@trade.gov,(86-10) 8531-3701,,(86-10) 8531-3000,F,
/sites/GM/China/Wuhan,Wuhan,Wuhan,Wuhan,GM-CS China-Field-China-Wuhan,China-Field China-Wuhan_AllUsers,GM-International,ba41f5604c453bc4bb47a3a3aec62e343769ea3e,Wuhan,Wuhan,CN,null,"U.S. Commercial Service - Wuhan,47F New World International Trade Tower I,NO. 568, Jianshe Avenue,Hankou, Wuhan, 430022, China",Jing.Wang@trade.gov,86-27-8555-7761,FPO mail will continue to be forwarded VIA Beijing,86-27-8555-7791,F,
/sites/GM/USA/Southwest/Denver,Denver,Denver,Denver,GM-CS USA-Field-Southwest-Denver,USA-Field-Southwest-Denver_AllUsers,GM-USA,91f268b76f5d47a31293fa7c76a416a2e7fd742c,Denver,Denver U.S. Export Assistance Center_CO & WY,US,CO,"U.S. Commercial Service Denver,999 18th Street, Suite 725 North Tower,Denver, CO 80202,http://www.export.gov/colorado/",Paul.Bergman@trade.gov,303-844-5651,,303-844-6623,D,
/sites/GM/EUR/Turkey/Istanbul,Istanbul,Istanbul,Istanbul,GM-CS EUR-Field-Turkey-Istanbul,GM-CS_EUR-Field-Turkey-Istanbul_AllUsers,GM-International,1cf055b178933a8772f700482a87e1932b3fbe24,Istanbul,Istanbul,TR,null,"U.S. Commercial Service Istanbul,Istinye Mahallesi,Kaplicalar Mevkii No. 2,Istinye Istanbul,Turkey TR-34460",Office.Istanbul@trade.gov,(90-212) 335-9103,Please note that APO regulations require mail to be addressed to the American officer at post and not directly to the FSN staff.,(90-212) 335-9040,F,
/sites/GM/USA/PacificSouth/Fresno,Fresno,Fresno,Fresno,GM-CS USA-Field-PacificSouth-Fresno,USA-Field-PacificSouth-Fresno_AllUsers,GM-USA,91d6d7bd703c63b17f0bb67bb4eef3a49181fde5,Fresno,Fresno U.S. Export Assistance Center,US,CA,"U.S. Commercial Service, Fresno,801 R. Street, Suite 201,Fresno, CA 93721,http://export.gov/california/fresno",glen.roberts@trade.gov,,,559 348-9859,D,
/sites/GM/USA/GreatLakes/GrandRapids,Grand-Rapids,Grand Rapids,Grand Rapids,GM-CS USA-Field-GreatLakes-GrandRapids,USA-Field-GreatLakes-GrandRapids_AllUsers,GM-USA,63dffdf3a5f918aa543a9c36cf02ac96d1b9d783,Grand Rapids,Grand Rapids U.S. Export Assistance Center,US,MI,"U.S. Commercial Service, U.S. Department of Commerce,50 Front Ave. SW, Suite 1119,Grand Rapids, MI 49504,http://www.export.gov/michigan",Kendra.Kuo@trade.gov,616-458-3872,,616-458-3564,D,
/sites/GM/USA/MidAtlantic/Columbia,Columbia,Columbia,Columbia,GM-CS USA-Field-MidAtlantic-Columbia,USA-Field-MidAtlantic-Columbia_AllUsers,GM-USA,4d7f98c3fa03e39eb64bfa8f72666b7363b16e34,Columbia,Columbia U.S. Export Assistance Center,US,SC,"U.S. Commercial Service,1301 Gervais Str., Suite 1100,Columbia, SC  29208,http://www.export.gov/southcarolina/",Dorette.Coetsee@trade.gov,,,803-255-2626,D,
/sites/GM/WH/Canada/Toronto,Toronto,Toronto,Toronto,GM-CS WH-Field-Canada-Toronto,WH-Field-CanadaToronto_AllUsers,GM-International,fbe05208857158f3d3718826e0b5bef5f01b4354,Toronto,Toronto,CA,null,"U.S. Commercial Service,480 University Avenue, Suite 602,Toronto, Ontario,CANADA  M5G 1V2,Canada Mailing Address: 360 University Avenue,Toronto, Ontario, Canada M5G 1S4",Office.Toronto@trade.gov,(416) 595-5419,,(416) 595-5412,F,
/sites/GM/MEA/SaudiArabia/Jeddah,Jeddah,Jeddah,Jeddah,GM-CS MEA-Field-SaudiArabia-Jeddah,GM-CS_MEA-Field-SaudiArabia-Jeddah_AllUsers,GM-International,d21c05423bf9c33a011f0c3bd3382254a606ceb2,Jeddah,Jeddah,SA,null,"U.S. Commercial Service,American Consulate General,Palestine Rd., Ruwais,P. O. Box 149,Jeddah 21411, Saudi Arabia",Office.Jeddah@trade.gov,+966-(0)12-664-4148,,+966-(0)12-667-0080,F,
/sites/GM/Asia/NewZealand/Wellington,Wellington,Wellington,Wellington,GM-CS Asia-Field-ANZ-NewZealand-Wellington,Asia-Field ANZ-NewZealand-Wellington_AllUsers,GM-International,da46c83159c41ac7013b555d156e182dc17328fa,Wellington,Wellington,NZ,null,"U.S. Commercial Service,American Embassy,29 Fitzherbert Terrace,Thorndon, Wellington",Office.Wellington@trade.gov,011-644-473-0770,,011-644-462-6002,F,
/sites/GM/EUR/Warsaw,Poland,Poland,Warsaw,GM-CS EUR-Field-PoCz-Warsaw,GM-CS-EUR-Field-PoCz-Warsaw_AllUsers,GM-International,193d794fdaf077f7bd4d39ae25779dbf0cd1b31a,Warsaw,Poland,PL,null,"U.S. Commercial Service,American Embassy,IPC Business Center,ul. Koszykowa 54, 4th Floor,00-675 Warsaw",office.warsaw@trade.gov,48 22 621 6327,,48 22 625 4374,F,
/sites/GM/EUR/Zagreb,Croatia,Croatia,Zagreb,GM-CS EUR-Field-Balkans-Zagreb,GM-CS_EUR-Field-Balkans-Zagreb_AllUsers,GM-International,1104ba40b10a6c5b3842b9860660ad48a6b3f7aa,Zagreb,Zagreb,HR,null,"U.S. Commercial Service,American Embassy,Thomasa Jeffersona 2,10010 Zagreb, Croatia",office.zagreb@trade.gov,011-385-1-661-2446,Please allow three weeks if using the above State Dept pouch address,011-385-1-661-2224,F,
/sites/GM/EUR/Turkey/Izmir,Izmir,Izmir,Izmir,GM-CS EUR-Field-Turkey-Izmir,GM-CS_EUR-Field-Turkey-Izmir_AllUsers,GM-International,090bea0e7b2545e4b668cd676b91e767ed23b716,Izmir,Izmir,TR,null,"U.S. Commercial Service,Ataturk Caddesi, 126,Kat:5,35210 Pasaport,Izmir",Office.Izmir@trade.gov,90-232-489-0267,,90-232-441-2446,F,
/sites/GM/Asia/ASEAN/Manila,Philippines,Philippines,Manila,GM-CS Asia-Field-ASEAN-Manila,Asia-Field-ASEAN-Manila_AllUsers,GM-International,b95f41aa423e0bfd496f94bcfcff84b002f59835,Manila,Manila,PH,null,"U.S. Commercial Service,Embassy of the United States of America,1201 Roxas Boulevard,Manila 0930, Philippines",businessphilippines@trade.gov,011-632-521-0416,Speak with Post regarding customs forms.,011-632-301-4249,F,
/sites/GM/EUR/Madrid,Spain,Spain,Madrid,GM-CS EUR-Field-SPG-Madrid,GM-CS-EUR-Field-SPG-Madrid_AllUsers,GM-International,504a2dae9c91cf7b5d5c21450eca114e36819b84,Madrid,Madrid,ES,null,"U.S. Commercial Service,Embassy of the United States of America,Serrano, 75,28006 Madrid,SPAIN",office.madrid@trade.gov,+34-91-563-0859,,+34-91-564-8976,F,
/sites/GM/USA/MidAtlantic/Pittsburgh,Pittsburgh,Pittsburgh,Pittsburgh,GM-CS USA-Field-MidAtlantic-Pittsburgh,USA-Field-MidAtlantic-Pittsburgh_AllUsers,GM-USA,6794e34a7a1259ca52b6b475c1cbc763e51ab92f,Pittsburgh,Pittsburgh U.S Commerical Service,US,PA,"U.S. Commercial Service,William S. Moorhead Federal Building,1000 Liberty Avenue, Suite 807,Pittsburgh, PA 15222",Lyn.Doverspike@trade.gov,412-644-2803,www.export.gov/pennsylvania/pittsburgh,412-644-2800,D,
/sites/GM/WH/Mexico/Guadalajara,Guadalajara,Guadalajara,Guadalajara,GM-CS WH-Field-Mexico-Guadalajara,WH-Field -Mexico-Guadalajara_AllUsers,GM-International,6c256366d65939f750effbd974892df2e26e3ed9,Guadalajara,Guadalajara,MX,null,"U.S. Commercial Service,World Trade Center, Torre Pacifico piso 4,Mariano Otero No. 1249,Col. Rinconada del Bosque,44530 Guadalajara, JAL,Mexico",Office.Guadalajara@trade.gov,52-33-3615-7665,"Send promotional materials for Gold Keys, IPSs, shows, missions, etc. via express mail courier service to the street address.  Do not use the Laredo address.  Specify ""no commercial value"" on the mailing label.",52-33-3615-1140,F,
/sites/GM/EUR/EURASIA/Russia/Almaty,Almaty,Almaty,Almaty,GM-CS EUR-Field-EURASIA-Russia-Almaty,GM-CS-EUR-Field-EURASIA-Russia-Almaty_AllUsers,GM-International,2c88761afecc37e94ee9e3e24ff8277bd2a6a439,Almaty,Almaty,KZ,null,"U.S. Consulate General - Almaty,U.S. Commercial Service,41 Kazibek bi St,050010, Almaty, Kazakhstan",office.almaty@trade.gov,7 (727) 250-0777,Send items to US mailing address if at all possible. We incur high brokerage fees for courier shipments to our Almaty address.,"7 (727) 727-250-7612, ext 6490",F,
/sites/GM/MEA/Africa/SouthAfrica/CapeTown,Cape-Town,Cape Town,Cape Town,GM-CS MEA-Field-Africa-SouthAfrica-CapeTown,GM-CS_MEA-Field-Africa-SouthAfrica-CapeTown_AllUsers,GM-International,c04b4073aa8d1714b4c46306bc3e4cf592d99a31,Cape Town,Cape Town,ZA,null,"U.S. Consulate General Cape Town,2 Reddam Avenue, West Lake,Cape Town, South Africa 7945",office.capetown@trade.gov,(27-21) 702-7402,,(27-21) 702-7300,F,
/sites/GM/WH/Mexico/Monterrey,Monterrey,Monterrey,Monterrey,GM-CS WH-Field-Mexico-Monterrey,WH-Field-Mexico-Monterrey_AllUsers,GM-International,77a8d56be3ee9f7551a0410fd90ee8a801da8f86,Monterrey,Monterrey,MX,null,"U.S. Consulate General Monterrey,U.S. Commercial Service,Prolongacion Avenida Alfonso Reyes #150,Col. Valle Poniente,66196 Santa Catarina, Nuevo Leon, Mexico",eric.olson@trade.gov,,,(52-81) 8047-3450,F,FALSE
/sites/GM/Asia/ASEAN/Vietnam/HCMC,Ho-Chi-Minh-City,Ho Chi Minh City,Ho Chi Minh City,GM-CS Asia-Field-ASEAN-Vietnam-HCMC,Asia-Field-ASEAN-VietnamHCMC_AllUsers,GM-International,552d5d3b56125f6aec1df8d21ce6a2e2f546e5cb,Ho Chi Minh City,Ho Chi Minh City,VN,null,"U.S. Consulate General,U.S. Commercial Service,Diamond Plaza, 8F,34 Le Duan Street, District 1,Ho Chi Minh City,Vietnam",Office.HoChiMinhCity@trade.gov,+84-28-3520-4679 / 81,"For courier delivery, use the above street address; For pouch, use the above mailing address",+84-28-3520-4680,F,
/sites/GM/USA/GreatLakes/Cleveland,Cleveland,Cleveland,Cleveland,GM-CS USA-Field-GreatLakes-Cleveland,USA-Field-GreatLakes-Cleveland_AllUsers,GM-USA,104d78ba685703022bad32e0a5d740e8663a3d75,Cleveland,Cleveland U.S. Export Assistance Center,US,OH,"U.S. Department of Commerce, U.S. Commercial Service,Howard M. Metzenbaum U.S. Courthouse,201 Superior Avenue East,Suite 424,Cleveland, OH 44114,http://export.gov/ohio/northernohio/index.asp",Office.Cleveland@trade.gov,216-522-2235,,216-522-4750,D,
/sites/GM/EUR/Belgrade,Serbia,Serbia,Belgrade,GM-CS EUR-Field-Balkans-Belgrade,GM-CS_EUR-Field-Balkans-Belgrade_AllUsers,GM-International,6c4effe387552ea604e218ef8f7c796a0fc80ebe,Belgrade,"Belgrade, Serbia",RS,null,"U.S. Embassy Belgrade,Bul. Kneza Aleksandra Karadjordjevica 92,11040 Belgrade",suzanne.platt@trade.gov,,,+381 11 706 4072,F,
/sites/GM/EUR/UK/London,London,London,London,GM-CS EUR-Field-UK-London,GM-CS_EUR-Field-UK-London_AllUsers,GM-International,1f986ac0c8e04b91217221489190ad28bb1bd629,London,London,GB,null,"U.S. Embassy London,U.S. Commercial Service,33 Nine Elms Lane,London SW11 7US,United Kingdom",Office.London@trade.gov,,,+44 20 7891 3419,F,
/sites/GM/EUR/Athens,Greece,Greece,Athens,GM-CS EUR-Field-SPG-Athens,GM-CS-EUR-Field-SPG-Athens_AllUsers,GM-International,510c765b98848f508f16b6f6e4a6aeda05328b2e,Athens,Athens,GR,null,"U.S. Embassy,U.S. Commercial Service,91 Vasilissis Sophias Avenue,GR-101 60 Athens",Office.Athens@trade.gov,+30 210 721 8660,For  courier mail use street address,For mailing other than from the U.S. use street address but do not/do not send packages to the att. of FSNs.,+30 210 720 2303 / 720 2302,
/sites/GM/Asia/ASEAN/Vietnam/Hanoi,Hanoi,Hanoi,Hanoi,GM-CS Asia-Field-ASEAN-Vietnam-Hanoi,Asia-Field-ASEAN-VietnamHanoi_AllUsers,GM-International,36b07b49affe70b78be96c76d27d149110109bde,Hanoi,Hanoi,VN,null,"U.S. Embassy,U.S. Commercial Service,Rose Garden Tower,170 Ngoc Khanh Street,Hanoi,Vietnam",Office.Hanoi@trade.gov,84-24-3850-5064,"For courier delivery, use the above street address; For official pouch, use the above mailing address",84-24-3850-5199,F,
/sites/GM/WH/Santiago,Chile,Chile,Santiago,GM-CS WH-Field-Santiago,WH-Field-Santiago_AllUsers,GM-International,54ab98dd99271b5855f8ffc2e6165987af0bc8b1,Santiago,Santiago,CL,null,"U.S. Embassy/Department of Commerce,Av. Andres Bello 2800, Las Condes,Santiago, Chile 755-0006",office.santiago@trade.gov,011-56-22-330-3172,Send brochures ONLY via USPS to DPO.  Other methods may result in delay or high customs charges.  Please put PRIORITY for any USPS mail.,011-56-22-330-3316,F,
/sites/GM/MEA/Gulf/Doha,Qatar,Qatar,Doha,GM-CS MEA-Field-Gulf-Doha,GM-CS_MEA-Field-Gulf-Doha_AllUsers,GM-International,52885fe4926ff81526b7f375d375cf9c561cfaea,Doha,Doha,QA,null,"United States Embassy - Commercial Section,22nd February Street,Al-Luqta,Doha,State of Qatar",ilona.shtrom@trade.gov,974-4488-4163,,974-4496-6000,F,
/sites/GM/USA/MidWest/DesMoines,DesMoines,DesMoines,Des Moines,GM-CS USA-Field-MidWest-DesMoines,USA-Field-MidWest-DesMoines_AllUsers,GM-USA,3762fab0d0140740bb5b4df773401521ae175532,Des Moines,US Commercial Service Iowa,US,IA,"US Commercial Service Iowa,Federal Building, Room 749,210 Walnut Street, Des Moines, IA 50309,http://export.gov/iowa",Patricia.Cook@trade.gov,515-284-4232,,515-284-4590,D,
/sites/GM/Asia/India/Mumbai,Mumbai,Mumbai,Mumbai,GM-CS Asia-Field-India-Mumbai,Asia-Field-IndiaMumbai_AllUsers,GM-International,226010e86063a1c9b9799fb166de5605e876318d,Mumbai,Mumbai,IN,null,"US Commercial Service,American Consulate General,C-49, G-Block, Bandra Kurla Complex (BKC),Bandra (E), Mumbai - 400 051.",office.mumbai@trade.gov,+91 22 2672 4400,Please allow three weeks via pouch,+91 22 2672 4000,F,
/sites/GM/USA/MidAtlantic/Wheeling,Wheeling,Wheeling,Wheeling,GM-CS USA-Field-MidAtlantic-Wheeling,USA-Field-MidAtlantic-Wheeling_AllUsers,GM-USA,e3fe3a54ac32da3837869fcf2ba58e5310a781f7,Wheeling,Wheeling U.S. Export Assistance Center,US,WV,"Wheeling U.S. Export Assistance Center,Wheeling Jesuit University,NTTC Building, Room 134,316 Washington Ave,Wheeling, WV 26003,http://www.export.gov/westvirginia/",Diego.Gattesco@trade.gov,304-243-5494,,304-243-5493,D,
/sites/GM/USA/MidWest/Wichita,Wichita,Wichita,Wichita,GM-CS USA-Field-MidWest-Wichita,USA-Field-MidWest-Wichita_AllUsers,GM-USA,88cace9f4ea30ba5a6ffc0fa633eec61738818b5,Wichita,Wichita U.S. Export Assistance Center,US,KS,"Wichita U.S. Export Assistance Center,300 W Douglas Ave., Suite 850, Wichita, KS 67202,http://www.export.gov/kansas/",Andrew.Anderson@trade.gov,316-462-5506,,316-263-4067,D,
/sites/EC/ADCVD/I,ADCVD-Office-I,ADCVD Office I,ADCVD Office I,EC ADCVDI,EC-ADCVDI_AllUsers,EC,,,,,,,,,,,,
/sites/EC/ADCVD/II,ADCVD-Office-II,ADCVD Office II,ADCVD Office II,EC ADCVDII,EC-ADCVDII_AllUsers,EC,,,,,,,,,,,,
/sites/EC/ADCVD/III,ADCVD-Office-III,ADCVD Office III,ADCVD Office III,EC ADCVDIII,EC-ADCVDIII_AllUsers,EC,,,,,,,,,,,,
/sites/EC/ADCVD/IV,ADCVD-Office-IV,ADCVD Office IV,ADCVD Office IV,EC ADCVDIV,EC-ADCVDIV_AllUsers,EC,,,,,,,,,,,,
/sites/EC/ADCVD/V,ADCVD-Office-V,ADCVD Office V,ADCVD Office V,EC ADCVDV,EC-ADCVDV_AllUsers,EC,,,,,,,,,,,,
/sites/EC/ADCVD/VI,ADCVD-Office-VI,ADCVD Office VI,ADCVD Office VI,EC ADCVDVI,EC-ADCVDVI_AllUsers,EC,,,,,,,,,,,,
/sites/EC/ADCVD/VII,ADCVD-Office-VII,ADCVD Office VII,ADCVD Office VII,EC ADCVDVII,EC-ADCVDVII_AllUsers,EC,,,,,,,,,,,,
/sites/EC/ADCVD/VIII,ADCVD-Office-VIII,ADCVD Office VIII,ADCVD Office VIII,EC ADCVDVIII,EC-ADCVDVIII_AllUsers,EC,,,,,,,,,,,,
/sites/EC/ADCVD,ADCVD-Operations,ADCVD Operations,ADCVD Operations,EC ADCVD,EC_ALL-ADCVD_AllUsers,EC,,,,,,,,,,,,
/sites/EC/ADCVD/TR,ADCVD-Training-and-Professional-Development-Unit,ADCVD Training and Professional Development Unit,ADCVD Training and Professional Development Unit,EC ADCVDTR,EC-ADCVDTR_AllUsers,EC,,,,,,,,,,,,
/sites/GM/Advocacy,Advocacy-Center-and-Multilateral-Development-Banks,Advocacy Center and Multilateral Development Banks,Advocacy Center and Multilateral Development Banks,GM-CS Advocacy-HQ,GM-CS_Advocacy_AllUsers,GM,,,,,,,,,,,,
/sites/IA/MFG/OTM/AEROT,Aerospace-Team,Aerospace Team,Aerospace Team,IA MFG-OTM-AEROT,IA_MFG-OTM-AEROT_AllUsers,IA,,,,,,,,,,,,
/sites/GM/Advocacy/AfricanDevelopmentBank,African-Development-Bank,African Development Bank,African Development Bank,GM-CS Advocacy-Field-African-Development-Bank,GM-CS_Advocacy-Field-African-Development-Bank_AllUsers,GM,,,,,,,,,,,,
/sites/GM/MEA/North/Africa/Algeria,Algeria,Algeria,Algeria,GM-CS MEA-Field-NorthAfrica-Algiers,GM-CS_MEA-Field-NorthAfrica-Algiers_AllUsers,GM-International,,,,,,,,,,,,
/sites/OCFAO/ARD,Analysis-and-Reporting-Division,Analysis and Reporting Division,Analysis and Reporting Division,OCFAO-ARD,OCFAO-ARD_AllUsers,OCFAO,,,,,,,,,,,,
/sites/OCIO/ASD,Architecture-Strategy-and-Design,"Architecture, Strategy and Design","Architecture, Strategy and Design",OCIO- ASD,OCIO_ASD_AllUsers,OCIO,,,,,,,,,,,,
/sites/GM/WH/BuenosAires,Argentina,Argentina,Argentina,GM-CS WH-Field-ARGUR-BuenosAires,WH-Field-ARGUR -BuenosAires_AllUsers,GM-International,,,,,,,,,,,,
/sites/GM/Asia/ASEAN,ASEAN-and-the-Pacific-Basin,ASEAN and the Pacific Basin,ASEAN and the Pacific Basin,GM-CS Asia-HQ-ASEAN-and-PacificBasin,Asia-HQ-ASEAN-and-PacificBasin_AllUsers,GM,,,,,,,,,,,,
/sites/GM/Advocacy/AsiaDevelopmentBank,Asia-Development-Bank,Asia Development Bank,Asia Development Bank,GM-CS Advocacy-Field-Asia-Development-Bank,GM-CS_Advocacy-Field-Asia-Development-Bank_AllUsers,GM,,,,,,,,,,,,
/sites/GM/Asia/AsiaOperations,Asia,Asia Operations,Asia Operations,GM-CS Asia-HQ,GM-CS_Asia_AllUsers,GM,,,,,,,,,,,,
/sites/GM/Asia/Australia,Australia,Australia,Australia,GM-CS Asia-Field-ANZ-Australia,GM-CS_Asia-Field-ANZ-Australia_AllUsers,GM-International,,,,,,,,,,,,
/sites/GM/EUR/Austria,Austria,Austria,Austria,GM-CS EUR-Field-GEAUS-Vienna,GM-CS_EUR-Field-GEAUS-Vienna_AllUsers,GM-International,,,,,,,,,,,,
/sites/IA/MFG/OTM/AUTOT,Automotive-Team,Automotive Team,Automotive Team,IA MFG-OTM-AUTOT,IA_MFG-OTM-AUTOT_AllUsers,IA,,,,,,,,,,,,
/sites/GM/MEA/Iraq/Baghdad,Baghdad,Baghdad,Baghdad,GM-CS MEA-Field-Iraq-Baghdad,GM-CS_MEA-Field-Iraq-Baghdad_AllUsers,GM-International,,,,,,,,,,,,
/sites/GM/SelectUSA/Berne,Select-USA-Switzerland,Berne,Berne,GM-CS SelectUSA-Field-Berne,SelectUSA-Field-Berne_AllUsers,GM-International,,,,,,,,,,,,
/sites/GM/WH/Brazil,Brazil,Brazil,Brazil,GM-CS WH-Field-Brazil,GM-CS_WH-Field-Brazil_AllUsers,GM-International,,,,,,,,,,,,
/sites/OCFAO/BFD,Budget-and-Finance-Division,Budget and Finance Division,Budget and Finance Division,OCFAO-BFD,OCFAO-BFD_AllUsers,OCFAO,,,,,,,,,,,,
/sites/GM/WH/CAFTA,CAFTA,CAFTA,CAFTA,GM-CS WH-Field-CAFTA,GM-CS_WH-Field-CAFTA_AllUsers,GM-International,,,,,,,,,,,,
/sites/GM/WH/Canada,Canada,Canada,Canada,GM-CS WH-Field-Canada,GM-CS_WH-Field-Canada_AllUsers,GM-International,,,,,,,,,,,,
/sites/IA/TPA/OTEA/CFIUS,CFIUS-Program,CFIUS Program,CFIUS Program,IA TPA-OTEA-CFIUS,IA_TPA-OTEA-CFIUS_AllUsers,IA,,,,,,,,,,,,
/sites/GM/USA/MidAtlantic/CharlestonSC,Charleston-SC,"Charleston, SC","Charleston, SC",GM-CS USA-Field-MidAtlantic-CharlestonSC,USA-Field-MidAtlantic-CharlestonSC_AllUsers,GM-USA,,,,,,,,,,,,
/sites/GM/USA/MidAtlantic/CharlestonWV,Charleston-WV,"Charleston, WV","Charleston, WV",GM-CS USA-Field-MidAtlantic-CharlestonWV,USA-Field-MidAtlantic-CharlestonWV_AllUsers,GM-USA,,,,,,,,,,,,
/sites/EC/CCTEC,Chief-Counsel-for-Trade-Enforcement-and-Compliance,Chief Counsel for Trade Enforcement & Compliance,Chief Counsel for Trade Enforcement & Compliance,EC CCTEC,EC-CCTEC_AllUsers,EC,,,,,,,,,,,,
/sites/GM/China/Field,China-Field,China Field,China Field,GM CS-China-Field China,GM-CS_China-Field-China_AllUsers,GM-International,,,,,,,,,,,,
/sites/GM/China/ChinaOperations,China-Operations,China Operations,China Operations,GM-CS China-HQ,GM-CS_China_AllUsers,GM,,,,,,,,,,,,
/sites/GM/WH/CAFTA/SanJose,Costa-Rica,Costa Rica,Costa Rica,GM-CS WH-Field-CAFTA-SanJose,WH-Field-CAFTA-SanJose_AllUsers,GM-International,,,,,,,,,,,,
/sites/GM/MEA/Africa/AbidjanCotedIvoire,Cote-divoire,Cote dIvoire,Cote dIvoire,GM-CS MEA-Field-Africa-AbidjanCotedIvoire,GM-CS_MEA-Field-Africa-AbidjanCotedIvoire_AllUsers,GM-International,,,,,,,,,,,,
/sites/OCIO/PD/CRM,Customer-Relationship-Management,Customer Relationship Management,Customer Relationship Management,OCIO- PD-CRM,OCIO_PD-CRM_AllUsers,OCIO,,,,,,,,,,,,
/sites/OCIO/CS,Customer-Service,Customer Service,Customer Service,OCIO- CS,OCIO_CS_AllUsers,OCIO,,,,,,,,,,,,
/sites/EC/ADCVD/CU,Customs-Liaison-Unit,Customs Liaison Unit,Customs Liaison Unit,EC ADCVDCU,EC-ADCVDCLU_AllUsers,EC,,,,,,,,,,,,
/sites/OCIO/CSO,Cyber-Security-Operations,Cyber Security Operations,Cyber Security Operations,OCIO- CSO,OCIO_CSO_AllUsers,OCIO,,,,,,,,,,,,
/sites/GM/USA/Southwest/DallasFortworth,Dallas-Ft-Worth,Dallas - Ft. Worth,Dallas - Ft. Worth,GM-CS USA-Field-Southwest-DallasFortworth,USA-Field-Southwest-DallasFortworth_AllUsers,GM-USA,,,,,,,,,,,,
/sites/GM/MEA/Africa/DarEsSalaam,Tanzania,Tanzania,Dar Es Salaam,GM-CS MEA-Field-Africa-DarEsSalaam,GM-CS_MEA-Field-Africa-DarEsSalaam_AllUsers,GM-International,,,,,,,,,,,,
/sites/IA/MFG/ODAS,DAS-for-Manufacturing,DAS for Manufacturing,DAS for Manufacturing,IA MFG-ODAS,IA_MFG-ODAS_AllUsers,IA,,,,,,,,,,,,
/sites/IA/SVCS/ODAS,DAS-for-Services,DAS for Services,DAS for Services,IA SVCS-ODAS,IA_SVCS-ODAS_AllUsers,IA,,,,,,,,,,,,
/sites/IA/TCGM/ODAS,DAS-for-Textiles-Consumer-Goods-and-Materials,"DAS for Textiles, Consumer Goods & Materials","DAS for Textiles, Consumer Goods & Materials",IA TCGM-ODAS,IA_TCGM-ODAS_AllUsers,IA,,,,,,,,,,,,
/sites/IA/TPA/ODAS,DAS-for-Trade-Policy-and-Analysis,DAS for Trade Policy & Analysis,DAS for Trade Policy & Analysis,IA TPA-ODAS,IA_TPA-ODAS_AllUsers,IA,,,,,,,,,,,,
/sites/IA/SVCS/ODSI/DPT,Data-Flows-and-Privacy-Team,Data Flows & Privacy Team,Data Flows & Privacy Team,IA SVCS-ODSI-DPT,IA_SVCS-ODSI-DPT_AllUsers,IA,,,,,,,,,,,,
/sites/IA/SVCS/ODSI/DIST,Digital-Internet-Services-Team,Digital & Internet Services Team,Digital & Internet Services Team,IA SVCS-ODSI-DIST,IA_SVCS-ODSI-DIST_AllUsers,IA,,,,,,,,,,,,
/sites/GM/WH/SantoDominigo,Dominican-Republic,Dominican Republic,Dominican Republic,GM-CS WH-Field-SantoDomingo,WH-Field-SantoDomingo_AllUsers,GM-International,,,,,,,,,,,,
/sites/GM/MEA/Africa/SouthAfrica/Durban,Durban,Durban,Durban,GM-CS MEA-Field-Africa-SouthAfrica-Durban,GM-CS_MEA-Field-Africa-SouthAfrica-Durban_AllUsers,GM-International,,,,,,,,,,,,
/sites/EC/BEIJING/,EC-Beijing,E&C Beijing Field Office,E&C Beijing Field Office,EC BEIJING,EC-Beijing_AllUsers,EC,,,,,,,,,,,,
/sites/EC/FTZ,Foreign-Trade-Zone,E&C Foreign Trade Zones,E&C Foreign Trade Zones,EC FTZ,EC-FTZ_AllUsers,EC,,,,,,,,,,,,
/sites/EC/OA,EC-Office-of-Accounting,E&C Office of Accounting,E&C Office of Accounting,EC OA,EC-OA_AllUsers,EC,,,,,,,,,,,,
/sites/EC/OOS,EC-Office-of-Operations-Support,E&C Office of Operations Support,E&C Office of Operations Support,EC OOS,EC-OOS_AllUsers,EC,,,,,,,,,,,,
/sites/EC/OP,EC-Office-of-Policy,E&C Office of Policy,E&C Office of Policy,EC OP DASPN,EC-OP_AllUsers,EC,,,,,,,,,,,,
/sites/EC/TANC,Trade-Agreements-Negotiations-and-Compliance,"E&C Trade Agreements, Negotiations, and Compliance","E&C Trade Agreements, Negotiations, and Compliance",EC TANC,EC-TANC_AllUsers,EC,,,,,,,,,,,,
/sites/GM/Asia/EastAsia,East-Asia-and-APEC,East Asia,East Asia,GM-CS Asia-HQ-EastAsia-and-APEC,GM-CS_Asia-HQ-EastAsia-and-APEC_AllUsers,GM,,,,,,,,,,,,
/sites/GM/WH/CAFTA/SanSalvador,El-Salvador,El Salvador,El Salvador,GM-CS WH-Field-CAFTA-SanSalvador,WH-Field-CAFTA-SanSalvador_AllUsers,GM-International,,,,,,,,,,,,
/sites/IA/MFG/OEEI/ENEGT,Energy-Team,Energy Team,Energy Team,IA MFG-OEEI-ENEGT,IA_MFG-OEEI-ENEGT_AllUsers,IA,,,,,,,,,,,,
/sites/EC,Enforcement-and-Compliance,Enforcement & Compliance,Enforcement & Compliance,EC,EC_AllUsers,EC,,,,,,,,,,,,
/sites/OCIO/ASD/EA,Enterprise-Architecture,Enterprise Architecture,Enterprise Architecture,OCIO- ASD-EA,OCIO_ASD-EA_AllUsers,OCIO,,,,,,,,,,,,
/sites/IA/MFG/OEEI/ENVT,Environmental-Industries,Environmental Industries,Environmental Industries,IA MFG-OEEI-ENVT,IA_MFG-OEEI-ENVT_AllUsers,IA,,,,,,,,,,,,
/sites/GM/MEA/Iraq/Erbil,Erbil,Erbil,Erbil,GM-CS MEA-Field-Iraq-Erbil,GM-CS_MEA-Field-Iraq-Erbil_AllUsers,GM-International,,,,,,,,,,,,
/sites/GM/EUR/HQ/DAS,Europe-DAS,Europe DAS,Europe DAS,GM-CS EUR-HQ-DAS-Office,GM-CS_EUR-HQ-DAS-Office_AllUsers,GM,,,,,,,,,,,,
/sites/GM/EUR/HQ,Europe-HQ,Europe HQ,Europe HQ,GM-CS EUR-HQ,GM-CS_EUR-HQ_AllUsers,GM,,,,,,,,,,,,
/sites/GM/EUR,Europe-Operations,Europe Operations,Europe Operations,GM-CS EUR-HQ,GM-CS_EUR_AllUsers,GM,,,,,,,,,,,,
/sites/GM/Advocacy/EuropeDevelopmentBank,European-Development-Bank,European Development Bank,European Development Bank,GM-CS Advocacy-Field-Europe-Development-Bank,GM-CS_Advocacy-Field-Europe-Development-Bank_AllUsers,GM,,,,,,,,,,,,
/sites/OCIO/FA,OCIO-Finance-and-Administration,Finance and Administration,Finance and Administration,OCIO- FA,OCIO_FA_AllUsers,OCIO,,,,,,,,,,,,
/sites/IA/SVCS/OFI/FST,Financial-Services-Team,Financial Services Team,Financial Services Team,IA SVCS-OFI-FST,IA_SVCS-OFI-FST_AllUsers,IA,,,,,,,,,,,,
/sites/GM/EUR/Paris,France,France,France,GM-CS EMEA-Field-SPG-Madrid,GM-CS_EUR-Field-Benelux-Paris_AllUsers,GM-International,,,,,,,,,,,,
/sites/GM/EUR/Germany,Germany,Germany,Germany,GM-CS EUR-Field-GEAUS-Germany,GM-CS_EUR-Field-GEAUS-Germany_AllUsers,GM-International,,,,,,,,,,,,
/sites/GM/MEA/Africa/Accra,Ghana,Ghana,Ghana,GM-CS MEA-Field-Africa-Accra,GM-CS_MEA-Field-Africa-Accra_AllUsers,GM-International,,,,,,,,,,,,
/sites/GM,Global-Markets,Global Markets,Global Markets,"GM-CS_DDG-HQ, GM-CS_DDG-CDI",GM-CS_AllUsers,GM,,,,,,,,,,,,
/sites/GM/USA/Southwest/Grapevine,Grapevine,Grapevine,Grapevine,GM-CS USA-Field-Southwest-Grapevine,USA-Field-Southwest-Grapevine_AllUsers,GM-USA,,,,,,,,,,,,
/sites/GM/USA/GreatLakes,Great-Lakes,Great Lakes,Great Lakes,GM-CS USA-Field-GreatLakes,GM-CS_USA-Field-GreatLakes_AllUsers,GM-USA,,,,,,,,,,,,
/sites/GM/WH/CAFTA/GuatemalaCity,Guatemala,Guatemala,Guatemala,GM-CS WH-Field-CAFTA-GuatemalaCity,WH-Field-CAFTA-GuatemalaCity_AllUsers,GM-International,,,,,,,,,,,,
/sites/GM/USA/Northeast/Harlem,Harlem,Harlem,Harlem,GM-CS USA-Field-NorthEast-Harlem,USA-Field-NorthEast-Harlem_AllUsers,GM-USA,,,,,,,,,,,,
/sites/IA/MFG/OHIT/HT,Health-Team,Health Team,Health Team,IA MFG-OHIT-HT,IA_MFG-OHIT-HT_AllUsers,IA,,,,,,,,,,,,
/sites/GM/Asia/India,India,India,India,GM-CS Asia-Field-India,GM-CS_Asia-Field-India_ALLUsers,GM-International,,,,,,,,,,,,
/sites/IA,Industry-and-Analysis,Industry & Analysis,Industry & Analysis,IA,IA_AllUsers,IA,,,,,,,,,,,,
/sites/IA/TPA/OTNA/IC,Industry-Competitiveness-Team,Industry Competitiveness Team,Industry Competitiveness Team,IA TPA-OTNA-IC,IA_TPA-OTNA-IC_AllUsers,IA,,,,,,,,,,,,
/sites/IA/TPA/OTNA/IN,Industry-Negotiations-Team,Industry Negotiations Team,Industry Negotiations Team,IA TPA-OTNA-IN,IA_TPA-OTNA-IN_AllUsers,IA,,,,,,,,,,,,
/sites/IA/MFG/OHIT/ITT,Information-Technologies-Team,Information Technologies Team,Information Technologies Team,IA MFG-OHIT-ITT,IA_MFG-OHIT-ITT_AllUsers,IA,,,,,,,,,,,,
/sites/GM/USA/PacificSouth/InlandEmpire,Inland-Empire,Inland Empire,Inland Empire,GM-CS USA-Field-PacificSouth-InlandEmpire,USA-Field-PacificSouth-InlandEmpire_AllUsers,GM-USA,,,,,,,,,,,,
/sites/GM/Advocacy/InterAmericanDevelopmentBank,Inter-American-Development-Bank,Inter-American Development Bank,Inter-American Development Bank,GM-CS Advocacy-Field-InterAmerican-Development-Bank,GM-CS_Advocacy-Field-InterAmerican-Development-Bank_AllUsers,GM,,,,,,,,,,,,
/sites/IA/TPA/OSIP/INV,Investment-Team,Investment Team,Investment Team,IA TPA-OSIP,IA_TPA-OSIP-INV_AllUsers,IA,,,,,,,,,,,,
/sites/GM/MEA/Iraq,Iraq,Iraq,Iraq,GM-CS MEA-Field-Iraq,GM-CS_MEA-Field-Iraq_AllUsers,GM-International,,,,,,,,,,,,
/sites/GM/MEA/Israel,Israel,Israel,Israel,GM-CS MEA-Field-Israel,GM-CS_MEA-Field-Israel_AllUsers,GM-International,,,,,,,,,,,,
/sites/OCFAO/HC,ITA-Human-Capital,ITA Human Capital,ITA Human Capital,OCFAO-HC,OCFAO-HC_AllUsers,OCFAO,,,,,,,,,,,,
/sites/OCFAO/HC/Learning,ITA-Human-Capital-Learning-Division,ITA Human Capital Learning Division,ITA Human Capital Learning Division,OCFAO-HC-Learning,OCFAO-HC-Learning_AllUsers,OCFAO,,,,,,,,,,,,
/sites/OCFAO/HC/People,ITA-Human-Capital-People-Division,ITA Human Capital People Division,ITA Human Capital People Division,OCFAO-HC-People,OCFAO-HC-People_AllUsers,OCFAO,,,,,,,,,,,,
/sites/GM/EUR/Italy,Italy,Italy,Italy,GM-CS EUR-Field-Italy,GM-CS_EUR-Field-Italy_AllUsers,GM-International,,,,,,,,,,,,
/sites/GM/Asia/Japan,Japan,Japan,Japan,GM-CS Asia-Field-Japan,GM-CS_Asia-Field-Japan_AllUsers,GM-International,,,,,,,,,,,,
/sites/GM/Asia/Kabul,Afghanistan,Afghanistan,Kabul,GM-CS Asia-Field-Kabul,GM-CS_Asia-Field-Kabul_ALLUsers,GM-International,,,,,,,,,,,,
/sites/GM/Asia/Seoul,Korea,Korea,Korea,GM-CS Asia-Field-Seoul,GM-CS_Asia-Field-Seoul_AllUsers,GM-International,,,,,,,,,,,,
/sites/GM/MEA/Gulf/KuwaitCity,Kuwait,Kuwait,Kuwait,GM-CS MEA-Field-Gulf-KuwaitCity,GM-CS_MEA-Field-Gulf-KuwaitCity_AllUsers,GM-International,,,,,,,,,,,,
/sites/GM/USA/PacificSouth/LasVegas,Las-Vegas,Las Vegas,Las Vegas,GM-CS USA-Field-PacificSouth-LasVegas,USA-Field-PacificSouth-LasVegas_AllUsers,GM-USA,,,,,,,,,,,,
/sites/GM/WH/HQ/LatinAmericaAndCaribbean,Latin-America-and-Caribbean,Latin America and Caribbean,Latin America and Caribbean,GM-CS_WH-HQ-LatinAmerica-and-Caribbean,GM-CS_WH-HQ-LatinAmerica-and-Caribbean_AllUsers,GM,,,,,,,,,,,,
/sites/GM/USA/GreatLakes/Lexington,Lexington,Lexington,Lexington,GM-CS USA-Field-GreatLakes-Lexington,USA-Field-GreatLakes-Lexington_AllUsers,GM-USA,,,,,,,,,,,,
/sites/GM/MEA/North/Africa/Tripoli,Libya,Libya,Libya,GM-CS MEA-Field-NorthAfrica-Tripoli,GM-CS_MEA-Field-NorthAfrica-Tripoli_AllUsers,GM-International,,,,,,,,,,,,
/sites/GM/USA/Northeast/LongIsland,Long-Island,Long Island,Long Island,GM-CS USA-Field-NorthEast-LongIsland,USA-Field-NorthEast-LongIsland_AllUsers,GM-USA,,,,,,,,,,,,
/sites/GM/USA/PacificSouth/LosAngeles,Los-Angeles,Los Angeles,Los Angeles,GM-CS USA-Field-PacificSouth-LosAngeles,USA-Field-PacificSouth-LosAngeles_AllUsers,GM-USA,,,,,,,,,,,,
/sites/IA/MFG/OTM/MT,Machinery-Team,Machinery Team,Machinery Team,IA MFG-OTM-MT,IA_MFG-OTM-MT_AllUsers,IA,,,,,,,,,,,,
/sites/GM/Asia/ASEAN/KaulaLumpur,Malaysia,Malaysia,Malaysia,GM-CS Asia-Field-ASEAN-KaulaLumpur,Asia-Field-ASEAN-KaulaLumpur_AllUsers,GM-International,,,,,,,,,,,,
/sites/OCFAO/MOD,Management-Operations-Division,Management Operations Division,Management Operations Division,OCFAO-MOD,OCFAO-MOD_AllUsers,OCFAO,,,,,,,,,,,,
/sites/IA/MFG,Manufacturing,Manufacturing,Manufacturing,IA MFG,IA_MFG_AllUsers,IA,,,,,,,,,,,,
/sites/IA/TPA/OTEA/MC,Market-Conditions-Team,Market Conditions Team,Market Conditions Team,IA TPA-OTEA,IA_TPA-OTEA-MC_AllUsers,IA,,,,,,,,,,,,
/sites/GM/MEA/HQ/DAS,MEA-DAS,MEA DAS,MEA DAS,GM-CS MEA-HQ-DAS-Office,GM-CS_MEA-HQ-DAS-Office_AllUsers,GM,,,,,,,,,,,,
/sites/GM/MEA,MEA-Operations,MEA Operations,MEA Operations,GM-CS MEA,GM-CS_MEA_AllUsers,GM,,,,,,,,,,,,
/sites/GM/MEA/HQ,MEA-HQ,MEA-HQ,MEA-HQ,GM-CS MEA-HQ,GM-CS_MEA-HQ_AllUsers,GM,,,,,,,,,,,,
/sites/GM/WH/Mexico,Mexico,Mexico,Mexico,GM-CS WH-Field-Mexico,GM-CS_WH-Field-Mexico_AllUsers,GM-International,,,,,,,,,,,,
/sites/GM/USA/Southern/Miami,Miami,Miami,Miami,GM-CS USA-Field-Southern-Miami,USA-Field-Southern-Miami_AllUsers,GM-USA,,,,,,,,,,,,
/sites/GM/USA/MidAtlantic,Mid-Atlantic-Network,Mid-Atlantic,Mid-Atlantic,GM-CS USA-Field-MidAtlantic,GM-CS_USA-Field-MidAtlantic_AllUsers,GM-USA,,,,,,,,,,,,
/sites/GM/USA/MidWest,Midwest-Network,Midwest,Midwest,GM-CS USA-Field-MidWest,GM-CS_USA-Field-MidWest_AllUsers,GM-USA,,,,,,,,,,,,
/sites/GM/USA/GreatLakes/Milwaukee,Milwaukee,Milwaukee,Milwaukee,GM-CS USA-Field-GreatLakes-Milwaukee,USA-Field-GreatLakes-Milwaukee_AllUsers,GM-USA,,,,,,,,,,,,
/sites/GM/USA/PacificNorth/Missoula,Missoula,Missoula,Missoula,GM-CS USA-Field-PacificNorth-Missoula,USA-Field-PacificNorth-Missoula_AllUsers,GM-USA,,,,,,,,,,,,
/sites/GM/MEA/North/Africa/Casablanca,Morocco,Morocco,Morocco,GM-CS MEA-Field-NorthAfrica-Casablanca,GM-CS_MEA-Field-NorthAfrica-Casablanca_AllUsers,GM-International,,,,,,,,,,,,
/sites/GM/USA/GreatLakes/Nashville,Nashville,Nashville,Nashville,GM-CS USA-Field-GreatLakes-Nashville,USA-Field-GreatLakes-Nashville_AllUsers,GM-USA,,,,,,,,,,,,
/sites/IA/NTTO,National-Travel-and-Tourism-Office,National Travel & Tourism Office,National Travel & Tourism Office,IA NTTO,IA_NTTO_AllUsers,IA,,,,,,,,,,,,
/sites/GM/USA/Northeast/NewHampshire,New-Hampshire,New Hampshire,New Hampshire,GM-CS USA-Field-NorthEast-NewHampshire,USA-Field-NorthEast-NewHampshire_AllUsers,GM-USA,,,,,,,,,,,,
/sites/GM/Asia/NewZealand,New-Zealand,New Zealand,New Zealand,GM-CS Asia-Field-ANZ-NewZealand,GM-CS_Asia-Field-ANZ-NewZealand_AllUsers,GM-International,,,,,,,,,,,,
/sites/GM/EUR/Nordics,Nordics,Nordics,Nordics,GM-CS EUR-Field-Nordics,GM-CS_EUR-Field-Nordics_AllUsers,GM-International,,,,,,,,,,,,
/sites/GM/WH/HQ/NorthAmerica,North-America,North America,North America,GM-CS_WH-HQ-NorthAmerica,WH-HQ-NorthAmerica_AllUsers,GM,,,,,,,,,,,,
/sites/GM/USA/PacificNorth/NorthBay,North-Bay,North Bay,North Bay,GM-CS USA-Field-PacificNorth-NorthBay,USA-Field-PacificNorth-NorthBay_AllUsers,GM-USA,,,,,,,,,,,,
/sites/GM/USA/Southwest/NorthTexas,North-Texas,North Texas,North Texas,GM-CS USA-Field-Southwest-NorthTexas,USA-Field-Southwest-NorthTexas_AllUsers,GM-USA,,,,,,,,,,,,
/sites/GM/USA/Northeast,Northeast,Northeast,Northeast,GM-CS USA-Field-NorthEast,GM-CS_USA-Field-NorthEast_AllUsers,GM-USA,,,,,,,,,,,,
/sites/GM/USA/MidAtlantic/NOVA,Northern-Virginia,Northern Virginia,Northern Virginia,GM-CS USA-Field-MidAtlantic-NOVA,USA-Field-MidAtlantic-NOVA_AllUsers,GM-USA,,,,,,,,,,,,
/sites/OCFAO/FrontOffice,OCFAO-Front-Office,OCFAO Front Office,OCFAO Front Office,OCFAO-FrontOffice,OCFAO-FrontOffice_AllUsers,OCFAO,,,,,,,,,,,,
/sites/GM/AdminServices,Office-of-Administrative-Services,Office of Administrative Services,Office of Administrative Services,GM-CS DDG-HQ-AdminServices,DDG-HQ-AdminServices_AllUsers,GM,,,,,,,,,,,,
/sites/IA/OACIO,Office-of-Advisory-Committees-and-Industry-Outreach,Office of Advisory Committees & Industry Outreach,Office of Advisory Committees & Industry Outreach,IA OACIO,IA_OACIO_AllUsers,IA,,,,,,,,,,,,
/sites/GM/MEA/Africa,Office-of-Africa,Office of Africa,Office of Africa,GM CS MEA-HQ-Africa,GM CS MEA-HQ-Africa_Allusers,GM,,,,,,,,,,,,
/sites/GM/MEA/North/Africa,Office-of-Africa,Office of Africa,"Office of Africa, North",GM-CS MEA-Field-NorthAfrica,GM-CS_MEA-Field-NorthAfrica_AllUsers,GM-International,,,,,,,,,,,,
/sites/GM/Asia,Asia-HQ,Office of Asia,Office of Asia,GM CS-Asia HQ,Asia-HQ_Allusers,GM,,,,,,,,,,,,
/sites/IA/OAS,IandA-Office-of-Assistant-Secretary,Office of Assistant Secretary for Industry & Analysis,Office of Assistant Secretary for Industry & Analysis,IA OAS,IA_OAS_AllUsers,IA,,,,,,,,,,,,
/sites/GM/Budget,GM-Office-of-Budget,Office of Budget,Office of Budget,GM-CS DDG-HQ-Budget,DDG-HQ-Budget_AllUsers,GM,,,,,,,,,,,,
/sites/GM/China,China-DAS,Office of China,Office of China,GM-CS China-HQ-DAS-Office,China-HQ-DAS-Office_AllUsers,GM,,,,,,,,,,,,
/sites/GM/China/OfficeOfChinaAndMongolia,Office-of-China-and-Mongolia,Office of China and Mongolia,Office of China and Mongolia,GM-CS China-HQ-Office-of-China-and-Mongolia,GM-CS_China-HQ-Office-of-China-and-Mongolia_AllUsers,GM,,,,,,,,,,,,
/sites/IA/TCGM/OCG,Office-of-Consumer-Goods,Office of Consumer Goods,Office of Consumer Goods,IA TCGM-OCG,IA_TDGM-OCG_AllUsers,IA,,,,,,,,,,,,
/sites/GM/CDI,Office-of-Digital-Initiatives,Office of Digital Initiatives,Office of Digital Initiatives,GM-CS DDG-HQ-ODI,DDG-HQ-CDI_AllUsers,GM,,,,,,,,,,,,
/sites/IA/SVCS/ODSI,Office-of-Digital-Service-Industries,Office of Digital Service Industries,Office of Digital Service Industries,IA SVCS-ODSI,IA_SVCS-ODSI_AllUsers,IA,,,,,,,,,,,,
/sites/OCFAO/CFAO-DCFAO,OCFAO-Office-of-Director,Office of Director-CFAO and DCFAO,Office of Director-CFAO and DCFAO,OCFAO-CFAO-and-DCFAO,OCFAO-and-DCFAO_AllUsers,OCFAO,,,,,,,,,,,,
/sites/IA/MFG/OEEI,Office-of-Energy-and-Environmental-Industries,Office of Energy & Environmental Industries,Office of Energy & Environmental Industries,IA MFG-OEEI,IA_MFG-OEEI_AllUsers,IA,,,,,,,,,,,,
/sites/GM/EUR/EURASIA,Office-of-Eurasia,Office of Eurasia,Office of Eurasia,GM CS EUR-Field-EURASIA,GM-CS_EUR-Field-EURASIA_AllUsers,GM-International,,,,,,,,,,,,
/sites/GM/EUR/Europe,Office-of-European-Affairs,Office of European Affairs,Office of European Affairs,GM CS EUR-HQ-Europe,GM CS EUR-HQ-Europe_AllUsers,GM,,,,,,,,,,,,
/sites/GM/EUR/HQ/EuropeanUnion,Office-of-European-Union,Office of European Union,Office of European Union,GM-CS EUR-Field-Belgium-USEU,GM-CS_EUR-Field-Belgium-USEU_AllUsers,GM,,,,,,,,,,,,
/sites/IA/SVCS/OFI,Office-of-Finance-Insurance-Industries,Office of Finance & Insurance Industries,Office of Finance & Insurance Industries,IA SVCS-OFI,IA_SVCS-OFI_AllUsers,IA,,,,,,,,,,,,
/sites/GM/MEA/Gulf,Office-of-Gulf,Office of Gulf,Office of Gulf,GM-CS MEA-Field-Gulf,GM-CS_MEA-Field-Gulf_AllUsers,GM-International,,,,,,,,,,,,
/sites/IA/MFG/OHIT,Office-of-Health-and-Information-Technology,Office of Health & Information Technology,Office of Health & Information Technology,IA MFG-OHIT,IA_MFG-OHIT_AllUsers,IA,,,,,,,,,,,,
/sites/GM/OFSHC,Office-of-Human-Capital-OFSHC,Office of Human Capital (OFSHC),Office of Human Capital (OFSHC),GM-CS DDG-HQ-OFSHC,GM-CS_DDG-HQ-OFSHC_AllUsers,GM,,,,,,,,,,,,
/sites/IA/TPA/OIPR,Office-of-Intellectual-Property-Rights,Office of Intellectual Property Rights,Office of Intellectual Property Rights,IA TPA-OIPR,IA_TPA-OIPR_AllUsers,IA,,,,,,,,,,,,
/sites/IA/TCGM/OM,Office-of-Materials,Office of Materials,Office of Materials,IA TCGM-OM,IA_TDGM-OM_AllUsers,IA,,,,,,,,,,,,
/sites/IA/OPCM,Office-of-Planning-Coordination-and-Management,"Office of Planning, Coordination & Management","Office of Planning, Coordination & Management",IA OPCM,IA_OPCM_AllUsers,IA,,,,,,,,,,,,
/sites/OUS/OPA,Office-of-Public-Affairs,Office of Public Affairs,Office of Public Affairs,OUS- OPA,OUS_OPA _AllUsers,OUS,,,,,,,,,,,,
/sites/GM/EUR/HQ/RussiaUkraineAndEurasia,Office-of-Russia-Ukraine-and-Eurasia,"Office of Russia, Ukraine and Eurasia","Office of Russia, Ukraine and Eurasia",GM-CS EUR-HQ-Russia-Ukraine-and-Eurasia,GM-CS-EUR-HQ-Russia-Ukraine-and-Eurasia_AllUsers,GM,,,,,,,,,,,,
/sites/IA/TPA/OSIP,Office-of-Standards-and-Investment-Policy,Office of Standards & Investment Policy,Office of Standards & Investment Policy,IA TPA-OSIP,IA_TPA-OSIP_AllUsers,IA,,,,,,,,,,,,
/sites/IA/TPPSP/SP,Office-of-Strategic-Partnerships,Office of Strategic Partnerships,Office of Strategic Partnerships,IA TPPSP-SP,IA_TPPSP-SP_AllUsers,IA,,,,,,,,,,,,
/sites/GM/OSP,Office-of-Strategic-Planning,Office of Strategic Planning,Office of Strategic Planning,GM-CS DDG-HQ-OSP,DDG-HQ-OSP_AllUsers,GM,,,,,,,,,,,,
/sites/IA/SVCS/OSCPBS,Office-of-Supply-Chain-Professional-and-Business-Services,"Office of Supply Chain, Professional & Business Services","Office of Supply Chain, Professional & Business Services",IA SVCS-OSCPBS,IA_SVCS-OSCPBS_AllUsers,IA,,,,,,,,,,,,
/sites/IA/TCGM/OTEXA,Office-of-Textiles-and-Apparel,Office of Textiles & Apparel,Office of Textiles & Apparel,IA TCGM-OTEXA,IA_TCGM-OTEXA_AllUsers,IA,,,,,,,,,,,,
/sites/EC/AS,EC-Office-of-the-Assistant-Secretary,Office of the Assistant Secretary for E&C,Office of the Assistant Secretary for E&C,EC OfficeAS,EC-AS_AllUsers,EC,,,,,,,,,,,,
/sites/OCFAO,Office-of-the-Chief-Financial-and-Administrative-Officer,Office of the Chief Financial and Administrative Officer,Office of the Chief Financial and Administrative Officer,OCFAO,OCFAO-ALL _AllUsers,OCFAO,,,,,,,,,,,,
/sites/OCIO,Office-of-the-Chief-Information-Officer,Office of the Chief Information Officer,Office of the Chief Information Officer,OCIO,OCIO_AllUser,OCIO,,,,,,,,,,,,
/sites/OCIO/CIO,Office-of-CIO-and-Deputy-CIO,Office of the CIO and Deputy CIO,Office of the CIO and Deputy CIO,OCIO- CIO-DCIO,OCIO_CIO-DCIO_AllUsers,OCIO,,,,,,,,,,,,
/sites/EC/DASADCVD,Office-of-the-DAS-for-ADCVD-Operations,Office of the DAS for ADCVD Operations,Office of the DAS for ADCVD Operations,EC OfficeDASADCVD,EC-DASADCVD_AllUsers,EC,,,,,,,,,,,,
/sites/EC/DASPN,Office-of-the-DAS-for-Policy-and-Negotiations,Office of the DAS for Policy & Negotiations,Office of the DAS for Policy & Negotiations,EC OfficeDASPN,EC-DASPN-Office_AllUsers,EC,,,,,,,,,,,,
/sites/EC/DAS,EC-Office-of-the-Deputy-Assistant-Secretary,Office of the Deputy Assistant Secretary for E&C,Office of the Deputy Assistant Secretary for E&C,EC OfficeDAS,EC-DAS_AllUsers,EC,,,,,,,,,,,,
/sites/GM/DG,Office-of-the-Director-General,Office of the Director General,Office of the Director General,GM-CS DG-HQ-Office,DG-HQ_AllUsers,GM,,,,,,,,,,,,
/sites/OUS/OLIA,Office-of-the-Legislative-and-Intergovernmental-Affairs,Office of the Legislative and Intergovernmental Affairs,Office of the Legislative and Intergovernmental Affairs,OUS- OLIA,OUS_OLIA_AllUsers,OUS,,,,,,,,,,,,
/sites/GM/MEA/HQ/MiddleEast,Office-of-the-Middle-East,Office of the Middle East,Office of the Middle East,GM-CS_MEA-HQ-MiddleEast,GM-CS_MEA-HQ-MiddleEast_AllUsers,GM,,,,,,,,,,,,
/sites/GM/DG/PDAS,Office-of-the-Principal-Deputy-Assistant-Secretary,Office of the Principal Deputy Assistant Secretary,Office of the Principal Deputy Assistant Secretary,GM-CS DDG-HQ-Office,DDG-HQ-Office_allusers,GM,,,,,,,,,,,,
/sites/OUS,Office-of-the-Under-Secretary-for-International-Trade,Office of the Under Secretary for International Trade,Office of the Under Secretary for International Trade,OUS,OUS_ALL _AllUsers,OUS,,,,,,,,,,,,
/sites/IA/TPA/OTEA,Office-of-Trade-and-Economic-Analysis,Office of Trade & Economic Analysis,Office of Trade & Economic Analysis,IA TPA-OTEA,IA_TPA-OTEA_AllUsers,IA,,,,,,,,,,,,
/sites/IA/TPA/OTNA,Office-of-Trade-Negotiations-and-Analysis,Office of Trade Negotiations & Analysis,Office of Trade Negotiations & Analysis,IA TPA-OTNA,IA_TPA-OTNA_AllUsers,IA,,,,,,,,,,,,
/sites/IA/TPPSP,Office-of-Trade-Promotion-Programs,Office of Trade Promotion Programs,Office of Trade Promotion Programs,IA TPPSP,IA_TPPSP_AllUsers,IA,,,,,,,,,,,,
/sites/IA/MFG/OTM,Office-of-Transportation-and-Machinery,Office of Transportation & Machinery,Office of Transportation & Machinery,IA MFG-OTM,IA_MFG-OTM_AllUsers,IA,,,,,,,,,,,,
/sites/OUS/OUS-DUS,Office-of-Under-Secretary-and-Deputy-Under-Secretary,Office of Under Secretary and Deputy Under Secretary,Office of Under Secretary and Deputy Under Secretary,OUS- OUS-and-DUS,OUS-and-DUS_AllUsers,OUS,,,,,,,,,,,,
/sites/GM/USA/MidWest/Omaha,Omaha,Omaha,Omaha,GM-CS USA-Field-MidWest-Omaha,USA-Field-MidWest-Omaha_AllUsers,GM-USA,,,,,,,,,,,,
/sites/GM/USA/PacificSouth/Ontario,Ontario,Ontario,Ontario,GM-CS USA-Field-PacificSouth-Ontario,USA-Field-PacificSouth-Ontario_AllUsers,GM-USA,,,,,,,,,,,,
/sites/OCFAO/OrgEx,Organizational-Excellence-Division,Organizational Excellence Division,Organizational Excellence Division,OCFAO-OrgEx,OCFAO-OrgEx_AllUsers,OCFAO,,,,,,,,,,,,
/sites/GM/Asia/Japan/OsakaKobe,Osaka-Kobe,Osaka Kobe,Osaka Kobe,GM-CS Asia-Field-Japan-OsakaKobe,Asia-Field-JapanOsakaKobe_AllUsers,GM-International,,,,,,,,,,,,
/sites/OCIO/PD/OP,Other-Products,Other Products,Other Products,OCIO- PD-OP,OCIO_PD-OP_AllUsers,OCIO,,,,,,,,,,,,
/sites/GM/USA/PacificNorth,Pacific-North-Network,Pacific North,Pacific North,GM-CS USA-Field-PacificNorth,GM-CS_USA-Field-PacificNorth_AllUsers,GM-USA,,,,,,,,,,,,
/sites/GM/USA/PacificSouth,Pacific-South-Network,Pacific South,Pacific South,GM-CS USA-Field-PacificSouth,GM-CS_USA-Field-PacificSouth_AllUsers,GM-USA,,,,,,,,,,,,
/sites/GM/Asia/Pakistan,Pakistan,Pakistan,Pakistan,GM-CS Asia-Field-Pakistan,GM-CS_Asia-Field-Pakistan_AllUsers,GM-International,,,,,,,,,,,,
/sites/GM/WH/Lima,Peru,Peru,Peru,GM-CS WH-Field-ANDPAN-Lima,WH-Field-ANDPAN-Lima_AllUsers,GM-International,,,,,,,,,,,,
/sites/GM/USA/Northeast/Portland,Portland,Portland,"Portland, ME",GM-CS USA-Field-NorthEast-Portland,USA-Field-NorthEast-Portland_AllUsers,GM-USA,,,,,,,,,,,,
/sites/GM/USA/PacificNorth/Portland,Portland,Portland,"Portland, OR",GM-CS USA-Field-PacificNorth-Portland,USA-Field-PacificNorth-Portland_AllUsers,GM-USA,,,,,,,,,,,,
/sites/GM/USA/Northeast/Portsmouth,Portsmouth,Portsmouth,Portsmouth,GM-CS USA-Field-NorthEast-Portsmouth,USA-Field-NorthEast-Portsmouth_AllUsers,GM-USA,,,,,,,,,,,,
/sites/OCIO/PD/PSDP,Product-and-Service-Delivery-Platform,Product and Service Delivery Platform,Product and Service Delivery Platform,OCIO- PD-PSDP,OCIO_PD-PSDP_AllUsers,OCIO,,,,,,,,,,,,
/sites/OCIO/PD,Product-Delivery,Product Delivery,Product Delivery,OCIO-PD,OCIO_PD_AllUsers,OCIO,,,,,,,,,,,,
/sites/OCIO/PD/PS,Product-Support,Product Support,Product Support,OCIO- PD-PS,OCIO_PD-PS_AllUsers,OCIO,,,,,,,,,,,,
/sites/IA/SVCS/OSCPBS/PSET,Professional-Services-and-Education-Team,Professional Services & Education Team,Professional Services & Education Team,IA SVCS-OSCPBS-PSET,IA_SVCS-OSCPBS-PSET_AllUsers,IA,,,,,,,,,,,,
/sites/GM/EUR/EURASIA/Russia,Russia,Russia,Russia,GM-CS EUR-Field-EURASIA-Russia,GM-CS_EUR-Field-EURASIA-Russia_AllUsers,GM-International,,,,,,,,,,,,
/sites/GM/USA/Southern/SanJuan,San-Juan-Puerto-Rico,San Juan Puerto Rico,San Juan Puerto Rico,GM-CS USA-Field-Southern-SanJuan,USA-Field-Southern-SanJuan_AllUsers,GM-USA,,,,,,,,,,,,
/sites/GM/MEA/SaudiArabia,Saudi-Arabia,Saudi Arabia,Saudi Arabia,GM-CS MEA-Field-SaudiArabia,GM-CS_MEA-Field-SaudiArabia_AllUsers,GM-International,,,,,,,,,,,,
/sites/GM/SelectUSA,Select-USA,SelectUSA,SelectUSA,GM-CS SelectUSA-HQ,GM-CS_SelectUSA_AllUsers,GM,,,,,,,,,,,,
/sites/IA/SVCS,Services,Services,Services,IA SVCS,IA_SVCS_AllUsers,IA,,,,,,,,,,,,
/sites/GM/MEA/Africa/SouthAfrica,South-Africa,South Africa,South Africa,GM-CS MEA-Field-Africa-SouthAfrica,GM-CS_MEA-Field-Africa-SouthAfrica_AllUsers,GM-International,,,,,,,,,,,,
/sites/GM/Asia/SouthAsia,South-Asia,South Asia,South Asia,GM-CS Asia-HQ-SouthAsia,GM-CS_Asia-HQ-SouthAsia_AllUsers,GM,,,,,,,,,,,,
/sites/GM/USA/Southern,Southern-Network,Southern Network,Southern Network,GM-CS USA-Field-Southern,GM-CS_USA-Field-Southern_AllUsers,GM-USA,,,,,,,,,,,,
/sites/GM/USA/Southwest,Southwest-Network,Southwest,Southwest,GM-CS USA-Field-Southwest,GM-CS_USA-Field-Southwest_AllUsers,GM-USA,,,,,,,,,,,,
/sites/GM/USA/MidWest/StLouis,St-Louis,St. Louis,St. Louis,GM-CS USA-Field-MidWest-StLouis,USA-Field-MidWest-StLouis_AllUsers,GM-USA,,,,,,,,,,,,
/sites/GM/EUR/EURASIA/Russia/StPetersburg,St-Petersburg,St. Petersburg,St. Petersburg,GM-CS EUR-Field-EURASIA-Russia-StPetersburg,GM-CS-EUR-Field-EURASIA-Russia-StPetersburg_AllUsers,GM-International,,,,,,,,,,,,
/sites/IA/TPA/OSIP/STAN,Standards-Team,Standards Team,Standards Team,IA TPA-OSIP-STAN,IA_TPA-OSIP-STAN_AllUsers,IA,,,,,,,,,,,,
/sites/OCIO/ASD/S,ASD-Strategy,Strategy,Strategy,OCIO- ASD-S,OCIO_ASD-S_AllUsers,OCIO,,,,,,,,,,,,
/sites/IA/SVCS/OSCPBS/SCT,Supply-Chain-Team,Supply Chain Team,Supply Chain Team,IA SVCS-OSCPBS-SCT,IA_SVCS-OSCPBS-SCT_AllUsers,IA,,,,,,,,,,,,
/sites/OCIO/SO,System-Operations,System Operations,System Operations,OCIO- SO,OCIO_SO_AllUsers,OCIO,,,,,,,,,,,,
/sites/GM/Asia/Taiwan,Taiwan,Taiwan,Taiwan,GM-CS Asia-Field-Taiwan,GM-CS_Asia-Field-Taiwan_AllUsers,GM-International,,,,,,,,,,,,
/sites/GM/USA/Southern/Tallahassee,Tallahassee,Tallahassee,Tallahassee,GM-CS USA-Field-Southern-Tallahassee,USA-Field-Southern-Tallahassee_AllUsers,GM-USA,,,,,,,,,,,,
/sites/OCIO/ASD/TAS,Technical-Architecture-and-Standards,Technical Architecture and Standards,Technical Architecture and Standards,OCIO- ASD-TAS,OCIO_ASD-TAS_AllUsers,OCIO,,,,,,,,,,,,
/sites/IA/TCGM,Textiles-Consumer-Goods-and-Materials,"Textiles, Consumer Goods & Materials","Textiles, Consumer Goods & Materials",IA TCGM,IA_TCGM_AllUsers,IA,,,,,,,,,,,,
/sites/IA/SVCS/OFI/TPFT,Trade-Project-Finance-Team,Trade & Project Finance Team,Trade & Project Finance Team,IA SVCS-OFI-TPFT,IA_SVCS-OFI-TPFT_AllUsers,IA,,,,,,,,,,,,
/sites/IA/TAS,Trade-Agreements-Secretariat,Trade Agreements Secretariat,Trade Agreements Secretariat,IA TAS,IA_TAS_AllUsers,IA,,,,,,,,,,,,
/sites/IA/TPPSP/TMP,Trade-Missions-Program,Trade Missions Program,Trade Missions Program,IA TPPSP-TMP,IA_TPPSP-TMP_AllUsers,IA,,,,,,,,,,,,
/sites/IA/TPA,Trade-Policy-and-Analysis,Trade Policy & Analysis,Trade Policy & Analysis,IA TPA,IA_TPA_AllUsers,IA,,,,,,,,,,,,
/sites/OUS/TPCC,Trade-Promotion-Coordinating-Committee,Trade Promotion Coordinating Committee,Trade Promotion Coordinating Committee,OUS- TPCC,OUS_TPCC_AllUsers,OUS,,,,,,,,,,,,
/sites/IA/TPPSP/TSM,Trade-Show-Management,Trade Show Management,Trade Show Management,IA TPPSP-TSM,IA_TPPSP-TSM_AllUsers,IA,,,,,,,,,,,,
/sites/GM/USA/MidAtlantic/Trenton,Trenton,Trenton,Trenton,GM-CS USA-Field-MidAtlantic-Trenton,USA-Field-MidAtlantic-Trenton_AllUsers,GM-USA,,,,,,,,,,,,
/sites/GM/USA/Southern/Tulsa,Tulsa,Tulsa,Tulsa,GM-CS USA-Field-Southern-Tulsa,USA-Field-Southern-Tulsa_AllUsers,GM-USA,,,,,,,,,,,,
/sites/GM/EUR/Turkey,Turkey,Turkey,Turkey,GM-CS EUR-Field-Turkey,GM-CS_EUR-Field-Turkey_AllUsers,GM-International,,,,,,,,,,,,
/sites/GM/USA/Southwest/Tuscon,Tuscon,Tuscon,Tuscon,GM-CS USA-Field-Southwest-Tucson,USA-Field-Southwest-Tucson _AllUsers,GM-USA,,,,,,,,,,,,
/sites/GM/USA,US-Operations,U.S. Field,U.S. Field,GM-CS_USA_HQ,GM-CS_USA_AllUsers,GM,,,,,,,,,,,,
/sites/GM/MEA/Gulf/UAE,United-Arab-Emirates,United Arab Emirates,United Arab Emirates,GM-CS MEA-Field-Gulf-UAE,GM-CS_MEA-Field-Gulf-UAE_AllUsers,GM-International,,,,,,,,,,,,
/sites/GM/EUR/UK,United-Kingdom,United Kingdom,United Kingdom,GM-CS EUR-Field-UK,GM-CS_EUR-Field-UK_AllUsers,GM-International,,,,,,,,,,,,
/sites/GM/USA/PacificSouth/Ventura,Ventura,Ventura,Ventura,GM-CS USA-Field-PacificSouth-Ventura,USA-Field-PacificSouth-Ventura_AllUsers,GM-USA,,,,,,,,,,,,
/sites/GM/Asia/ASEAN/Vietnam,Vietnam,Vietnam,Vietnam,GM-CS Asia-Field-ASEAN-Vietnam,GM-CS_Asia-Field-ASEAN-Vietnam_AllUsers,GM-International,,,,,,,,,,,,
/sites/GM/USA/PacificSouth/WestLosAngeles,West-Los-Angeles,West Los Angeles,West Los Angeles,GM-CS USA-Field-PacificSouth-WestLosAngeles,USA-Field-PacificSouth-WestLosAngeles_AllUsers,GM-USA,,,,,,,,,,,,
/sites/GM/USA/Northeast/Westchester,Westchester,Westchester,Westchester,GM-CS USA-Field-NorthEast-Westchester,USA-Field-NorthEast-Westchester_AllUsers,GM-USA,,,,,,,,,,,,
/sites/GM/WH/DAS,Western-Hemisphere-DAS,Western Hemisphere DAS,Western Hemisphere DAS,GM CS-WH-HQ DAS Office,WH-HQ-DAS-Office_AllUsers,GM,,,,,,,,,,,,
/sites/GM/WH/HQ,Western-Hemisphere-HQ,Western Hemisphere HQ,Western Hemisphere HQ,GM CS-WH HQ,GM-CS_WH-HQ_AllUsers,GM,,,,,,,,,,,,
/sites/GM/WH,Western-Hemisphere-Operations,Western Hemisphere Operations,Western Hemisphere Operations,GM-CS_WH-HQ,GM-CS_WH_AllUsers,GM,,,,,,,,,,,,
/sites/GM/Advocacy/WorldBank,World-Bank,World Bank,World Bank,GM-CS Advocacy-Field-World-Bank,GM-CS_Advocacy-Field-World-Bank_AllUsers,GM,,,,,,,,,,,,
